{
"type": "FeatureCollection",
"name": "highbridge",
"crs": { "type": "name", "properties": { "name": "urn:ogc:def:crs:OGC:1.3:CRS84" } },
"features": [
{ "type": "Feature", "properties": { "name": "Highbridge Park", "site_id": "highbridge", "area_acres": 18.7, "source": "NYC Parks Properties (enfh-gkve)" }, "geometry": { "type": "MultiPolygon", "coordinates": [ [ [ [ -73.940937086483771, 40.830855337715086 ], [ -73.940686932016547, 40.831187730544649 ], [ -73.940588917216701, 40.831322545394464 ], [ -73.940575329508135, 40.831341232665118 ], [ -73.940535347385975, 40.831396225982623 ], [ -73.940535245706513, 40.831389282215156 ], [ -73.940520797986622, 40.831408479616272 ], [ -73.940520642802682, 40.831391100888027 ], [ -73.940500267624003, 40.830671511281331 ], [ -73.940937086483771, 40.830855337715086 ] ] ], [ [ [ -73.939790082161451, 40.830718988683309 ], [ -73.939788691395734, 40.83072436751349 ], [ -73.939787234248371, 40.830729736403555 ], [ -73.939785708348396, 40.830735095352217 ], [ -73.939784117254788, 40.830740441659913 ], [ -73.939782459779551, 40.830745778027492 ], [ -73.9397807347396, 40.830751101752817 ], [ -73.939778944506756, 40.830756411936655 ], [ -73.939777089080266, 40.830761709479475 ], [ -73.939775166089817, 40.830766993479578 ], [ -73.939773177906517, 40.830772263938165 ], [ -73.939771124531092, 40.830777519954729 ], [ -73.939769005964337, 40.830782760628807 ], [ -73.939766821021621, 40.830787985059295 ], [ -73.939764572073059, 40.830793194147823 ], [ -73.939762259119604, 40.830798386994033 ], [ -73.939759880975544, 40.830803563597229 ], [ -73.939757437642626, 40.83080872215637 ], [ -73.939754931491834, 40.830813862672784 ], [ -73.939752360152127, 40.830818985145171 ], [ -73.939749725994531, 40.830824089574811 ], [ -73.939747029021518, 40.830829173260149 ], [ -73.939744266859549, 40.830834238901467 ], [ -73.939741443066836, 40.830839284699636 ], [ -73.93973855645946, 40.830844308853017 ], [ -73.939735608222193, 40.830849312262799 ], [ -73.939732595983841, 40.830854294927612 ], [ -73.939729523301907, 40.830859255948873 ], [ -73.939726387806957, 40.830864193524413 ], [ -73.939723191868296, 40.830869109456344 ], [ -73.939719935488526, 40.83087400104322 ], [ -73.939716617480357, 40.830878870085428 ], [ -73.939713240217344, 40.830883713882734 ], [ -73.939709801326813, 40.830888534234845 ], [ -73.939706301995827, 40.830893329341372 ], [ -73.939702744596318, 40.830898098303088 ], [ -73.939699126754817, 40.83090284382024 ], [ -73.939695450846372, 40.830907561391555 ], [ -73.939691716869405, 40.830912252818031 ], [ -73.939687923640008, 40.830916916298051 ], [ -73.939684072342857, 40.83092155273274 ], [ -73.939680164164329, 40.830926161222202 ], [ -73.939676197918047, 40.830930742666318 ], [ -73.939672177163089, 40.830935294365453 ], [ -73.939668097157266, 40.830939816317105 ], [ -73.939663962642001, 40.830944309424268 ], [ -73.939659771246923, 40.830948772785199 ], [ -73.939655525343142, 40.830953206401119 ], [ -73.939651223746793, 40.830957608470385 ], [ -73.939344330722363, 40.831288190203942 ], [ -73.939340109674092, 40.831292622020122 ], [ -73.939335917063772, 40.831297070059954 ], [ -73.93933175289132, 40.831301534323515 ], [ -73.939327618344819, 40.831306012109962 ], [ -73.939323513420931, 40.831310507021222 ], [ -73.939319436935733, 40.831315017255683 ], [ -73.939315391261218, 40.831319541914148 ], [ -73.939311370468744, 40.831324081893946 ], [ -73.93930738285809, 40.83132863629902 ], [ -73.939303424871682, 40.831333206027942 ], [ -73.939299496509605, 40.831337791080756 ], [ -73.939295597773437, 40.831342389656399 ], [ -73.939291728661544, 40.83134700355594 ], [ -73.939287889174864, 40.831351631878867 ], [ -73.939284080498808, 40.831356274625783 ], [ -73.939280301448676, 40.831360930895606 ], [ -73.939276553208444, 40.831365602489903 ], [ -73.939272834595016, 40.831370286706616 ], [ -73.939269146791474, 40.831374986247837 ], [ -73.939265488614694, 40.831379698411517 ], [ -73.939261862434989, 40.831384424099291 ], [ -73.939258267066009, 40.831389164211075 ], [ -73.939254701323804, 40.831393916945316 ], [ -73.939251166393163, 40.831398683203133 ], [ -73.939247663460435, 40.831403462084538 ], [ -73.939244191339299, 40.831408254489503 ], [ -73.93924075002964, 40.831413060418051 ], [ -73.93923734071879, 40.8314178780698 ], [ -73.939233961033977, 40.831422709244436 ], [ -73.939230614533457, 40.83142755214287 ], [ -73.939227298844472, 40.831432408564908 ], [ -73.939224013968783, 40.83143727670948 ], [ -73.939220761090979, 40.831442157477774 ], [ -73.939217540212027, 40.831447049969235 ], [ -73.939214351331032, 40.831451955084432 ], [ -73.939211194449669, 40.831456871022311 ], [ -73.939208068379841, 40.831461800483787 ], [ -73.939204975496068, 40.831466739868098 ], [ -73.939201914610294, 40.831471691876111 ], [ -73.939198884539437, 40.831476653805709 ], [ -73.939195888837702, 40.831481628360315 ], [ -73.939192923950017, 40.831486613736985 ], [ -73.939189991062051, 40.831491609936421 ], [ -73.939187092544827, 40.831496616959832 ], [ -73.939184224840915, 40.831501635705813 ], [ -73.939181390323029, 40.8315066643747 ], [ -73.939178587804875, 40.831511703866298 ], [ -73.939175819658303, 40.831516753281392 ], [ -73.939173083512244, 40.831521812618746 ], [ -73.939170379365137, 40.831526883679366 ], [ -73.939167708404895, 40.831531963762352 ], [ -73.939165070630736, 40.831537053768216 ], [ -73.939162467228243, 40.83154215369759 ], [ -73.939159894639886, 40.831547264449078 ], [ -73.939157356425738, 40.831552382422615 ], [ -73.939154851396808, 40.831557511219515 ], [ -73.939152380740467, 40.831562649039476 ], [ -73.939149940899071, 40.831567796781094 ], [ -73.939147536616602, 40.83157295264585 ], [ -73.93914516552114, 40.831578117532949 ], [ -73.939142827611803, 40.831583292343055 ], [ -73.939140522891066, 40.831588474374499 ], [ -73.939138253728444, 40.831593665429637 ], [ -73.939136015381763, 40.831598865505946 ], [ -73.939133811409263, 40.831604072804303 ], [ -73.939131644179596, 40.831609290027437 ], [ -73.939129507767504, 40.831614514470751 ], [ -73.93912740691519, 40.831619746136738 ], [ -73.939125339250722, 40.831624985924684 ], [ -73.939123304774142, 40.831630233834517 ], [ -73.939121305857313, 40.831635488967066 ], [ -73.939119340128457, 40.83164075222156 ], [ -73.939117408774607, 40.831646021797575 ], [ -73.939115512980635, 40.831651298596334 ], [ -73.939113649189835, 40.831656582615899 ], [ -73.939111861421935, 40.831661705487015 ], [ -73.939110027103055, 40.831667171421998 ], [ -73.9391081727818, 40.831672470754889 ], [ -73.93910630660551, 40.831677769180942 ], [ -73.939104432132524, 40.831683064901121 ], [ -73.939102545805255, 40.831688358814013 ], [ -73.939100649994899, 40.831693650920897 ], [ -73.939098744703031, 40.831698939420733 ], [ -73.939096828740858, 40.831704227914884 ], [ -73.939094902111634, 40.831709512801432 ], [ -73.939092965999265, 40.831714795881894 ], [ -73.939091018032698, 40.831720077155119 ], [ -73.93908906295492, 40.831725355723066 ], [ -73.939087094837305, 40.831730632483065 ], [ -73.939085117238278, 40.831735905636059 ], [ -73.939083128969642, 40.831741177882847 ], [ -73.93908113240343, 40.831746448324253 ], [ -73.939079123983845, 40.831751716057859 ], [ -73.939077106081086, 40.831756981985471 ], [ -73.939075076324883, 40.83176224520529 ], [ -73.939073038271857, 40.831767505719121 ], [ -73.939070990735772, 40.831772764426979 ], [ -73.939068931346171, 40.831778020427073 ], [ -73.939066862473425, 40.831783274621081 ], [ -73.939064782932832, 40.831788526107935 ], [ -73.939062693909051, 40.831793775788746 ], [ -73.939060594217352, 40.831799022762404 ], [ -73.939058483856897, 40.831804267929385 ], [ -73.939056364015016, 40.831809509489332 ], [ -73.939054234689053, 40.831814750143721 ], [ -73.939052093510512, 40.831819987189846 ], [ -73.939049945219878, 40.831825222431199 ], [ -73.939047783890246, 40.831830454964077 ], [ -73.939045615448549, 40.831835685692177 ], [ -73.939043433967768, 40.831840913711879 ], [ -73.939041243004667, 40.831846139025039 ], [ -73.939039042558392, 40.831851362532106 ], [ -73.939036831444184, 40.831856583332055 ], [ -73.939034610847614, 40.831861801425418 ], [ -73.939032379583111, 40.831867016811621 ], [ -73.939030138835392, 40.831872230391795 ], [ -73.939027887420607, 40.831877440364295 ], [ -73.939025626522636, 40.831882648530765 ], [ -73.939023353770295, 40.831887854889892 ], [ -73.939021072722028, 40.831893057642638 ], [ -73.939018783376895, 40.831898257689403 ], [ -73.9390165056097, 40.831903760308528 ], [ -73.939014169123681, 40.831908652361108 ], [ -73.939011847774708, 40.83191384428639 ], [ -73.939009516942562, 40.831919034405601 ], [ -73.939007175441617, 40.831924222718158 ], [ -73.939004823273535, 40.831929407423011 ], [ -73.939002461623076, 40.831934589421337 ], [ -73.939000090489429, 40.831939769613584 ], [ -73.938997708687779, 40.831944947098663 ], [ -73.938995317404547, 40.831950120976686 ], [ -73.938992915452573, 40.831955293048004 ], [ -73.938990504018975, 40.831960461512345 ], [ -73.938988083102174, 40.831965628170558 ], [ -73.938985651517427, 40.831970792121609 ], [ -73.938983209264649, 40.831975953365493 ], [ -73.938980757530373, 40.831981111002293 ], [ -73.938978296313593, 40.831986265932564 ], [ -73.938975824427217, 40.831991419956616 ], [ -73.938973343060084, 40.83199656947312 ], [ -73.938970853395304, 40.832001717184198 ], [ -73.938968350692193, 40.832006861286317 ], [ -73.938965838506675, 40.8320120026819 ], [ -73.938963318023468, 40.832017142272065 ], [ -73.93896078687392, 40.832022277354007 ], [ -73.938958245054707, 40.832027411529786 ], [ -73.938955694940361, 40.832032541198608 ], [ -73.938953134157927, 40.83203766816024 ], [ -73.938950563892305, 40.832042793315821 ], [ -73.938947981773907, 40.832047914863089 ], [ -73.938945392544184, 40.832053033705016 ], [ -73.938942791460946, 40.832058149839149 ], [ -73.938940180895216, 40.832063263266711 ], [ -73.938937560847862, 40.832068373087189 ], [ -73.93893493131813, 40.832073480201124 ], [ -73.93893229112031, 40.832078584607856 ], [ -73.938929641440907, 40.832083685407525 ], [ -73.938926981092678, 40.83208878440049 ], [ -73.938924311261971, 40.832093880686884 ], [ -73.938921631950492, 40.832098972465715 ], [ -73.938918941970968, 40.832104061537322 ], [ -73.938916243694507, 40.832109147902997 ], [ -73.9389135347501, 40.832114231561476 ], [ -73.938910815138442, 40.832119311612303 ], [ -73.938908087229876, 40.832124388957126 ], [ -73.938905348652497, 40.832129464495239 ], [ -73.9389026005951, 40.832134534625297 ], [ -73.938899843054415, 40.832139602949283 ], [ -73.938897074846508, 40.832144667665588 ], [ -73.938894298341708, 40.832149729675912 ], [ -73.938891509984174, 40.832154788077908 ], [ -73.938888713328865, 40.832159844674464 ], [ -73.938885906006306, 40.832164897663311 ], [ -73.938883089202946, 40.832169946144589 ], [ -73.938880262916257, 40.83217499281978 ], [ -73.938877427147105, 40.832180036788387 ], [ -73.93887458071157, 40.832185076248791 ], [ -73.938871724793529, 40.832190113002582 ], [ -73.938868859392969, 40.832195147049845 ], [ -73.93886598451077, 40.832200177489987 ], [ -73.938863100146094, 40.832205205223538 ], [ -73.938860205114992, 40.832210228448908 ], [ -73.938857300600588, 40.832215249868206 ], [ -73.9388543866053, 40.832220266779856 ], [ -73.93885146312671, 40.832225281885464 ], [ -73.93884853016732, 40.83223029248348 ], [ -73.938845586539756, 40.8322353003743 ], [ -73.938842633430596, 40.832240304658001 ], [ -73.938839672025296, 40.832245305335285 ], [ -73.93883669876638, 40.832250303304662 ], [ -73.938833717210485, 40.832255298568114 ], [ -73.938830727358479, 40.832260290225086 ], [ -73.938827725654477, 40.83226527737321 ], [ -73.93882471446716, 40.832270262715262 ], [ -73.938821694985322, 40.832275242649864 ], [ -73.938818664834599, 40.832280220777726 ], [ -73.93881562520221, 40.832285195298454 ], [ -73.938812576088097, 40.832290166212154 ], [ -73.938809516305867, 40.832295134418615 ], [ -73.93880644941396, 40.832300098118736 ], [ -73.93880336948277, 40.832305059110354 ], [ -73.938800283626605, 40.832310016496756 ], [ -73.938797187103177, 40.832314970275455 ], [ -73.938794079911659, 40.832319921346873 ], [ -73.938790963240081, 40.832324867010279 ], [ -73.938787838270699, 40.832329810868153 ], [ -73.938784701448412, 40.832334751117664 ], [ -73.938781556330056, 40.832339687760715 ], [ -73.938778402915545, 40.832344620797322 ], [ -73.938775238833756, 40.832349550226176 ], [ -73.938772065270243, 40.832354476047904 ], [ -73.938768882225006, 40.832359398262589 ], [ -73.938765689698883, 40.832364315969635 ], [ -73.93876248768936, 40.832369231870572 ], [ -73.938759276198127, 40.832374144164397 ], [ -73.938756055226037, 40.832379051950596 ], [ -73.93875282477218, 40.832383956129732 ], [ -73.938749584836614, 40.832388856701748 ], [ -73.938746335418514, 40.832393754567121 ], [ -73.938743076519472, 40.83239864792494 ], [ -73.938739808138692, 40.832403537675575 ], [ -73.938736530275392, 40.832408424719674 ], [ -73.938733242931121, 40.832413307256118 ], [ -73.938729946105184, 40.832418186185464 ], [ -73.93872663979748, 40.832423061507662 ], [ -73.938723324008052, 40.832427933222782 ], [ -73.938719999922398, 40.832432801331407 ], [ -73.938716665170304, 40.832437664931795 ], [ -73.938713322120407, 40.83244252672668 ], [ -73.938709968404808, 40.83244738311285 ], [ -73.93870660639304, 40.832452235892511 ], [ -73.938703233713937, 40.832457085064426 ], [ -73.938699852738665, 40.832461930629854 ], [ -73.938696462282508, 40.832466771687649 ], [ -73.938693061158162, 40.832471610038176 ], [ -73.938689652924026, 40.832476443882364 ], [ -73.938686235208166, 40.832481274119452 ], [ -73.938682805639388, 40.832486100748106 ], [ -73.938679367774441, 40.832490923770315 ], [ -73.938675921614134, 40.832495742285538 ], [ -73.938672465972033, 40.832500557193583 ], [ -73.938668999662639, 40.832505368493912 ], [ -73.938665526243383, 40.832510175287858 ], [ -73.938662042156011, 40.832514979374551 ], [ -73.938658548587711, 40.832519778953596 ], [ -73.938655045538454, 40.832524574025022 ], [ -73.938651534192218, 40.832529366390453 ], [ -73.938648013364954, 40.832534154248258 ], [ -73.938644483055981, 40.832538938498914 ], [ -73.93864094445243, 40.832543717342105 ], [ -73.938637395180734, 40.832548493478001 ], [ -73.938633836428068, 40.832553265106284 ], [ -73.938630269379203, 40.832558033128038 ], [ -73.938626694034127, 40.832562797543318 ], [ -73.938623108022512, 40.832567557450261 ], [ -73.938619512529129, 40.832572313750141 ], [ -73.938615909925943, 40.832577065543646 ], [ -73.938612296656245, 40.832581812828842 ], [ -73.938608673903929, 40.832586557407396 ], [ -73.938605042856224, 40.832591297478956 ], [ -73.938601401141966, 40.83259603304225 ], [ -73.938597752317037, 40.832600764999647 ], [ -73.938594092825625, 40.832605492448806 ], [ -73.938590425038015, 40.832610216291428 ], [ -73.938586747769378, 40.83261493562641 ], [ -73.938583062204557, 40.83261965135484 ], [ -73.938579367158766, 40.832624362575686 ], [ -73.938575661445583, 40.832629070188737 ], [ -73.93857194743785, 40.832633772394246 ], [ -73.938568226319475, 40.832638470993899 ], [ -73.938564493348125, 40.83264316598509 ], [ -73.938560752081386, 40.832647856469336 ], [ -73.938557002518422, 40.83265254334701 ], [ -73.938553243474516, 40.832657225717028 ], [ -73.93854947495042, 40.832661902678936 ], [ -73.938545698129275, 40.832666576934798 ], [ -73.938541913012727, 40.832671246683624 ], [ -73.938538117229598, 40.832675911924191 ], [ -73.938534313150257, 40.832680573558207 ], [ -73.938530500776338, 40.832685229784737 ], [ -73.938526678919786, 40.832689883304539 ], [ -73.93852284639749, 40.832694531415633 ], [ -73.938519006765361, 40.832699175020281 ], [ -73.938515157650585, 40.832703815918286 ], [ -73.938511300242027, 40.832708450508278 ], [ -73.938507432166105, 40.832713081490439 ], [ -73.938503556979498, 40.832717708866703 ], [ -73.938499672312759, 40.832722330834848 ], [ -73.938495778164224, 40.832726949195781 ], [ -73.938491874534648, 40.83273156304908 ], [ -73.938487963795225, 40.832736172395961 ], [ -73.93848404238922, 40.832740777234562 ], [ -73.938480112687017, 40.832745378466583 ], [ -73.93847617469018, 40.832749974291126 ], [ -73.93847222839625, 40.832754567409587 ], [ -73.938468271437458, 40.832759154218785 ], [ -73.938464307367909, 40.832763737422027 ], [ -73.938460332631834, 40.832768316117047 ], [ -73.93845634960033, 40.832772890304945 ], [ -73.938452358272571, 40.832777460886305 ], [ -73.93844835865022, 40.832782026060151 ], [ -73.938444349546842, 40.832786586726321 ], [ -73.938440332148033, 40.832791142885469 ], [ -73.938436304082614, 40.83279569453628 ], [ -73.938432268906553, 40.832800242581193 ], [ -73.938428224250288, 40.832804785217924 ], [ -73.938424171297797, 40.832809324248096 ], [ -73.938420110050686, 40.832813857870725 ], [ -73.938416038136936, 40.832818386985011 ], [ -73.938411959112557, 40.832822912493448 ], [ -73.93840787179353, 40.83282743259425 ], [ -73.93840377380792, 40.832831948186794 ], [ -73.938399668712464, 40.832836459272912 ], [ -73.938395554136008, 40.832840965851339 ], [ -73.938391432450445, 40.832845467022842 ], [ -73.938387300097546, 40.832849964586508 ], [ -73.93838315944916, 40.832854457643158 ], [ -73.938379010505273, 40.832858946192736 ], [ -73.938374852081282, 40.83286342933409 ], [ -73.938370686547401, 40.832867907969053 ], [ -73.93836651034691, 40.832872382095694 ], [ -73.938362327036543, 40.832876851715916 ], [ -73.938358135430732, 40.832881316829045 ], [ -73.938353934343908, 40.832885777434505 ], [ -73.938349723776867, 40.832890232631755 ], [ -73.938345506099978, 40.832894683322614 ], [ -73.938341278942033, 40.832899129505755 ], [ -73.938337043489483, 40.832903570281296 ], [ -73.93833279974065, 40.8329080074503 ], [ -73.938328546511599, 40.832912439211093 ], [ -73.938324286172687, 40.832916866465474 ], [ -73.938321110509648, 40.832920155174186 ], [ -73.938318988657628, 40.832922348544564 ], [ -73.937928219153093, 40.8327567783737 ], [ -73.939683933510636, 40.830325335904526 ], [ -73.939876002046162, 40.830406602307143 ], [ -73.939790082161451, 40.830718988683309 ] ] ], [ [ [ -73.93142603255346, 40.845839313619301 ], [ -73.931325971207102, 40.845807369449723 ], [ -73.93122304381582, 40.845781196542454 ], [ -73.931117827695118, 40.845760940213999 ], [ -73.931010912047384, 40.845746715173121 ], [ -73.930902895595665, 40.845738601017104 ], [ -73.930794381840386, 40.845736643129634 ], [ -73.930685979061977, 40.845740850879743 ], [ -73.93057829438699, 40.845751203021351 ], [ -73.930493668553922, 40.845760786430972 ], [ -73.930408261256986, 40.845764693502034 ], [ -73.93032273185986, 40.845762894014356 ], [ -73.930237740866005, 40.845755401874463 ], [ -73.930153942803855, 40.845742274210956 ], [ -73.930000070157035, 40.845704740255194 ], [ -73.930173960388572, 40.84542828724345 ], [ -73.930303736981728, 40.845224717505339 ], [ -73.93042379462662, 40.845019406503219 ], [ -73.930534894694574, 40.844811207497997 ], [ -73.930636692701469, 40.844600767762358 ], [ -73.930742972261825, 40.844359644526101 ], [ -73.930841105098736, 40.844117034987477 ], [ -73.931327999162647, 40.842830983380694 ], [ -73.931344370790583, 40.842788596111561 ], [ -73.931371624219537, 40.842732281985199 ], [ -73.931394790363399, 40.842685109928304 ], [ -73.931436936645838, 40.842604763277663 ], [ -73.931466284921996, 40.84255557237244 ], [ -73.931510021187819, 40.842468257721812 ], [ -73.930939832293404, 40.842421723350057 ], [ -73.930939486870102, 40.842422079738533 ], [ -73.930904721646201, 40.842418857665422 ], [ -73.93022077742836, 40.842355471750395 ], [ -73.92969742953639, 40.842306966770948 ], [ -73.929688501030668, 40.84231577265431 ], [ -73.929622320584272, 40.842311544099992 ], [ -73.929624525151084, 40.842295605815544 ], [ -73.929492329443903, 40.842283499898073 ], [ -73.929495297478027, 40.84227668587949 ], [ -73.929483954282546, 40.84227588110852 ], [ -73.92947987674313, 40.842282359464988 ], [ -73.9293147299975, 40.84226723545185 ], [ -73.929313786656863, 40.842271215053579 ], [ -73.929272941017757, 40.842268048194668 ], [ -73.929273641916524, 40.842263472318109 ], [ -73.928976621050779, 40.842236271414762 ], [ -73.928975711985686, 40.842240336581732 ], [ -73.928937610133971, 40.84223723162652 ], [ -73.928937992007064, 40.842232732997843 ], [ -73.928638087964387, 40.842205266502148 ], [ -73.928636935045262, 40.842208930796133 ], [ -73.928572136016456, 40.842203737165008 ], [ -73.928572000955086, 40.842199213904074 ], [ -73.928393070496654, 40.842182826547905 ], [ -73.928392328602214, 40.842186877406235 ], [ -73.928365866171319, 40.842184799746185 ], [ -73.92836639265542, 40.842180383153988 ], [ -73.928187548849891, 40.842164002736695 ], [ -73.928186737385644, 40.842167681646714 ], [ -73.92816196974978, 40.842166377618156 ], [ -73.928162536831962, 40.842161711615546 ], [ -73.927984808801412, 40.842145434234915 ], [ -73.927983181652735, 40.84214900277405 ], [ -73.927958074904851, 40.842147698489988 ], [ -73.927958640810559, 40.842143036990116 ], [ -73.927564449433149, 40.842106931576602 ], [ -73.927548886028546, 40.842110661550237 ], [ -73.927348047637196, 40.842095914816539 ], [ -73.927343544150077, 40.842119826378159 ], [ -73.927240037436306, 40.842235351141902 ], [ -73.927021226766286, 40.842213760459423 ], [ -73.927014064576838, 40.842212934677953 ], [ -73.927006895230619, 40.842212147612649 ], [ -73.926999717540852, 40.842211400163364 ], [ -73.92699253387805, 40.842210693232012 ], [ -73.926985343058433, 40.842210025016932 ], [ -73.926978146265753, 40.842209397319813 ], [ -73.926970943500024, 40.842208810140626 ], [ -73.926963735948931, 40.842208261679183 ], [ -73.926956522425684, 40.842207752835186 ], [ -73.926949304115041, 40.842207284509904 ], [ -73.92694208220378, 40.842206855803617 ], [ -73.926934855506133, 40.842206466715531 ], [ -73.926927626392555, 40.842206118147686 ], [ -73.926920393678273, 40.842205809198738 ], [ -73.92691315736235, 40.842205540769292 ], [ -73.926905919817173, 40.842205311960335 ], [ -73.92689867985797, 40.842205121870585 ], [ -73.926891438667582, 40.842204973202271 ], [ -73.926884196247926, 40.842204864154418 ], [ -73.926876952598036, 40.842204795627566 ], [ -73.926869707718808, 40.842204766721153 ], [ -73.926862463980825, 40.84220477833717 ], [ -73.92685522020021, 40.842204828673999 ], [ -73.926847977559831, 40.842204920433723 ], [ -73.926840734875839, 40.842205051814666 ], [ -73.926833494519713, 40.842205222818322 ], [ -73.926826255304761, 40.842205434344471 ], [ -73.926819018417618, 40.842205685493326 ], [ -73.926811783858355, 40.842205976264928 ], [ -73.926804552811674, 40.842206307560495 ], [ -73.926797325278585, 40.842206678479535 ], [ -73.926790102443789, 40.842207089923257 ], [ -73.926782881937726, 40.842207540089291 ], [ -73.926775666130013, 40.842208030779965 ], [ -73.926768455021531, 40.842208561094957 ], [ -73.926761249797025, 40.842209131935356 ], [ -73.926754051643314, 40.84220974240155 ], [ -73.926746858189745, 40.842210391591472 ], [ -73.926739670620179, 40.842211081306864 ], [ -73.926732490120301, 40.842211811548466 ], [ -73.926725316692057, 40.842212580515373 ], [ -73.926718151520276, 40.842213389108778 ], [ -73.926710993419107, 40.842214237327859 ], [ -73.926703844760084, 40.842215125174292 ], [ -73.926696704357425, 40.842216052647167 ], [ -73.926689572212126, 40.842217018846085 ], [ -73.92668245069467, 40.842218024672981 ], [ -73.926675338619276, 40.8422190701272 ], [ -73.926668235986909, 40.842220154308137 ], [ -73.926661145168154, 40.84222127811789 ], [ -73.926654063791432, 40.842222441554902 ], [ -73.926646994230211, 40.842223642819683 ], [ -73.926639937667233, 40.84222488461451 ], [ -73.926632892919741, 40.842226164237182 ], [ -73.926625858800008, 40.842227483487783 ], [ -73.926618838867256, 40.842228840567792 ], [ -73.926611833119438, 40.842230237278031 ], [ -73.926604839186041, 40.842231672716622 ], [ -73.926597859438559, 40.842233146884986 ], [ -73.926590893878057, 40.842234658882688 ], [ -73.926583943689153, 40.84223620961091 ], [ -73.926577007686177, 40.842237799069018 ], [ -73.926570088241547, 40.842239426357949 ], [ -73.926563184169538, 40.842241091476957 ], [ -73.926556295469098, 40.842242795326563 ], [ -73.9265494245128, 40.842244537007751 ], [ -73.926542568929051, 40.842246316519052 ], [ -73.926535731089345, 40.842248133861943 ], [ -73.926528938304671, 40.842249953934605 ], [ -73.926522162079337, 40.842251810937654 ], [ -73.926515405969482, 40.842253705773821 ], [ -73.926508666419949, 40.842255636639862 ], [ -73.92650194580014, 40.842257605338311 ], [ -73.926495241740625, 40.842259610066641 ], [ -73.926488558982271, 40.842261652628835 ], [ -73.926481895156712, 40.842263730321967 ], [ -73.926475251446632, 40.842265845848274 ], [ -73.926468629040727, 40.842267996507019 ], [ -73.926462025565556, 40.842270184097636 ], [ -73.926455444580313, 40.842272406821479 ], [ -73.926448883711501, 40.842274666477934 ], [ -73.926442345331566, 40.84227696216815 ], [ -73.926435828255848, 40.842279292990796 ], [ -73.92642933366902, 40.842281659847167 ], [ -73.926422862757789, 40.842284061837496 ], [ -73.926416411963999, 40.842286499859995 ], [ -73.926409987218278, 40.84228897211748 ], [ -73.926403584961449, 40.842291480408754 ], [ -73.926397206381225, 40.842294022933473 ], [ -73.926390852661385, 40.842296601493416 ], [ -73.926384524989601, 40.842299214288431 ], [ -73.926378220994394, 40.842301861316905 ], [ -73.92637194186149, 40.842304542579654 ], [ -73.926365688776613, 40.84230725807744 ], [ -73.926359460553144, 40.842310008709994 ], [ -73.926353260750162, 40.842312792678584 ], [ -73.926347086995222, 40.84231561088221 ], [ -73.926340939288309, 40.842318463320893 ], [ -73.926334818817153, 40.84232134819441 ], [ -73.926328726765576, 40.842324267304477 ], [ -73.926322661948717, 40.842327219749897 ], [ -73.926316625553397, 40.84233020463089 ], [ -73.926310617578565, 40.842333222847977 ], [ -73.926304638025215, 40.842336273500649 ], [ -73.926298688077097, 40.842339358390639 ], [ -73.926292767737223, 40.842342474816554 ], [ -73.926286877005623, 40.842345622778311 ], [ -73.926281017065918, 40.84234880407768 ], [ -73.926275185547752, 40.842352017812736 ], [ -73.926269387196015, 40.842355262185414 ], [ -73.926263618452467, 40.842358538094004 ], [ -73.926257880501879, 40.842361846439715 ], [ -73.926252175717778, 40.842365185423134 ], [ -73.926246500541836, 40.8423685559425 ], [ -73.92624085853133, 40.842371957999987 ], [ -73.926235249688276, 40.842375389794739 ], [ -73.926229672824917, 40.842378853126895 ], [ -73.926224129127959, 40.842382347096787 ], [ -73.926218619785203, 40.842385869904163 ], [ -73.926213142422171, 40.842389424248957 ], [ -73.926207700598994, 40.842393007432044 ], [ -73.926202290756507, 40.842396621252121 ], [ -73.926196916453918, 40.842400263910434 ], [ -73.926191577690261, 40.842403936307477 ], [ -73.926186273280777, 40.842407637542117 ], [ -73.926181003225466, 40.842411367614233 ], [ -73.926175771080551, 40.842415127426655 ], [ -73.926170573290804, 40.84241891517609 ], [ -73.926165412227718, 40.842422730864101 ], [ -73.926160286704544, 40.842426575390398 ], [ -73.92615519790904, 40.842430446954786 ], [ -73.926150147024927, 40.842434347359017 ], [ -73.926145131681736, 40.842438275701049 ], [ -73.926140155438702, 40.842442230182201 ], [ -73.926135215922315, 40.842446212601942 ], [ -73.926080716759913, 40.842486479261076 ], [ -73.926052409480278, 40.84247139586622 ], [ -73.926097803876033, 40.842424178784007 ], [ -73.926298179968285, 40.842215756369683 ], [ -73.926411121092585, 40.842035730736185 ], [ -73.926485942870102, 40.841916465794014 ], [ -73.926566134558612, 40.84178863782747 ], [ -73.92671197012011, 40.841801255541654 ], [ -73.926699998156877, 40.841874027600703 ], [ -73.927377562313524, 40.841939222367408 ], [ -73.927365758608957, 40.842001885662306 ], [ -73.927558166278061, 40.842017545574173 ], [ -73.927591917898795, 40.842038756272736 ], [ -73.928928643231956, 40.842158694991447 ], [ -73.928971091537463, 40.842156663511602 ], [ -73.929000882614119, 40.842166283811778 ], [ -73.929633685728646, 40.842227708816175 ], [ -73.929652443483079, 40.842216093990324 ], [ -73.929701488465568, 40.842221581780791 ], [ -73.929715222284983, 40.84223345324726 ], [ -73.930214964548298, 40.842278930817713 ], [ -73.930976373940638, 40.842348217256031 ], [ -73.931538963176337, 40.842410477652287 ], [ -73.93160583801037, 40.84227696968933 ], [ -73.934106489111755, 40.83789988569773 ], [ -73.934672176137013, 40.837037282226504 ], [ -73.935369040520797, 40.836049073791713 ], [ -73.935424062217649, 40.835971045281539 ], [ -73.935520523454755, 40.835837368671704 ], [ -73.935589259476103, 40.835746600351726 ], [ -73.935677717348, 40.835637153234153 ], [ -73.935765197440588, 40.835535624447985 ], [ -73.935856687007274, 40.835435372023028 ], [ -73.93596694635859, 40.835318640096908 ], [ -73.936080518286644, 40.835200323228378 ], [ -73.936174925018236, 40.835114598034778 ], [ -73.936311199895499, 40.83498732907681 ], [ -73.936446316225272, 40.834869654083278 ], [ -73.936651176002982, 40.834695726460907 ], [ -73.938217509103083, 40.833478747594675 ], [ -73.938370459036335, 40.833352867362912 ], [ -73.93851959146977, 40.833223698986579 ], [ -73.938615220787497, 40.83313382654508 ], [ -73.938706702286595, 40.83304180413927 ], [ -73.938794109585828, 40.832947518355702 ], [ -73.938877366700694, 40.832851095232542 ], [ -73.938956040420493, 40.832753063139648 ], [ -73.939024569030011, 40.832663981046693 ], [ -73.939089902780267, 40.832573114245236 ], [ -73.939151742560895, 40.832480849795459 ], [ -73.939210043257489, 40.83238726782313 ], [ -73.939264642238257, 40.83229260958047 ], [ -73.939296508419233, 40.832233653864989 ], [ -73.939327053126704, 40.832174159849707 ], [ -73.939391961098508, 40.832036935181065 ], [ -73.939450777871315, 40.831897869365385 ], [ -73.939487341841996, 40.831800067818193 ], [ -73.939512952947595, 40.831730270401792 ], [ -73.939523478338899, 40.831704192191921 ], [ -73.939535125020285, 40.831678378413834 ], [ -73.939547873980658, 40.831652874081897 ], [ -73.939561715702567, 40.831627714310187 ], [ -73.939576650194866, 40.831602888292238 ], [ -73.939592626419511, 40.831578459936082 ], [ -73.939609663325015, 40.831554450863131 ], [ -73.939627728900476, 40.831530861056123 ], [ -73.939646793454827, 40.831507747230226 ], [ -73.939925642242571, 40.831230518823098 ], [ -73.939943222561681, 40.831209740057417 ], [ -73.939961196858178, 40.831187219937171 ], [ -73.940005768393632, 40.831123240465153 ], [ -73.94003463935023, 40.831077993009977 ], [ -73.940076422652425, 40.831005763527259 ], [ -73.940115618892946, 40.83092838815832 ], [ -73.940154693229772, 40.830838818210715 ], [ -73.940167914541917, 40.830800443279202 ], [ -73.940181162511664, 40.830746905827475 ], [ -73.94019531878169, 40.830683916350225 ], [ -73.940198737045478, 40.830844452040999 ], [ -73.940217057620004, 40.831421966860269 ], [ -73.940217536200279, 40.831438227342048 ], [ -73.940217737818088, 40.831452659675861 ], [ -73.940216800114698, 40.831471053595905 ], [ -73.940215965137853, 40.83148199417414 ], [ -73.940212799840111, 40.831505592699351 ], [ -73.940196860159816, 40.831572733426562 ], [ -73.940192635992645, 40.831588591649627 ], [ -73.940187255394292, 40.831606336709697 ], [ -73.940176528148911, 40.831640976779475 ], [ -73.940162705626037, 40.831675364004127 ], [ -73.940148672820811, 40.831708904652778 ], [ -73.940133891215382, 40.831739267965503 ], [ -73.940118214300327, 40.831768534008788 ], [ -73.940095071476051, 40.83180484884646 ], [ -73.940049499232614, 40.831868520756977 ], [ -73.939995336769044, 40.831942200779984 ], [ -73.939662811428093, 40.832395503782571 ], [ -73.939588392178294, 40.832512731733118 ], [ -73.939578492909902, 40.832529404607527 ], [ -73.939566371596172, 40.832552905667562 ], [ -73.939560319756851, 40.832565386953078 ], [ -73.939554933859327, 40.832576947381277 ], [ -73.939541329449341, 40.832609498532179 ], [ -73.939529119353537, 40.832641950457493 ], [ -73.939523740596641, 40.832657381213501 ], [ -73.93951745366634, 40.832676745753695 ], [ -73.939507760499197, 40.832705316063809 ], [ -73.939499586803151, 40.8327291451657 ], [ -73.939488117476316, 40.832752664568716 ], [ -73.939476408423957, 40.832773830852389 ], [ -73.939461401614324, 40.832798323631629 ], [ -73.93944654276126, 40.832820463494315 ], [ -73.939430448650583, 40.832842464930607 ], [ -73.939413496754426, 40.832863823861274 ], [ -73.939395268105201, 40.832885042541918 ], [ -73.939376951461242, 40.832905234609527 ], [ -73.939356418998244, 40.83292537958382 ], [ -73.93933496788901, 40.832945314255944 ], [ -73.939313356910276, 40.832963733307651 ], [ -73.939250483146523, 40.83301696715845 ], [ -73.939164462573771, 40.833090263491165 ], [ -73.938080954819412, 40.834010301949334 ], [ -73.938066524844203, 40.83402434821685 ], [ -73.938053389911389, 40.834037994458242 ], [ -73.938015760998397, 40.834077782395305 ], [ -73.937980282611761, 40.834117689441122 ], [ -73.93794779065837, 40.834158929913691 ], [ -73.937915474878281, 40.834201913828814 ], [ -73.937886775646703, 40.834243095992129 ], [ -73.937860548919431, 40.834283686054505 ], [ -73.937833423228355, 40.834329611054997 ], [ -73.937808402512843, 40.834376204450152 ], [ -73.93778526396656, 40.834419572383723 ], [ -73.937766948975536, 40.834466175689805 ], [ -73.937749012713979, 40.834512195676716 ], [ -73.936295873994951, 40.83768731688675 ], [ -73.936279280700163, 40.837726826792448 ], [ -73.936261434140917, 40.837765093321444 ], [ -73.936242006328015, 40.83780289251758 ], [ -73.936221000829889, 40.837840209974111 ], [ -73.936198442580633, 40.837877006982723 ], [ -73.936174373114596, 40.837913243943838 ], [ -73.936148790112156, 40.837948865024572 ], [ -73.936121729144276, 40.837983867542142 ], [ -73.936093197351113, 40.838018222683729 ], [ -73.936062073054657, 40.838053195920615 ], [ -73.936005437867351, 40.838120131530744 ], [ -73.93594723189797, 40.838184239590156 ], [ -73.935885381902764, 40.838246231234685 ], [ -73.935820995556057, 40.838307069702701 ], [ -73.935754943270581, 40.838365393928264 ], [ -73.935686632793519, 40.838421826720008 ], [ -73.935614850274035, 40.838477298506945 ], [ -73.935541523889555, 40.838530311038141 ], [ -73.935461231563892, 40.838584487564944 ], [ -73.935380327761081, 40.838636963560852 ], [ -73.935345854407998, 40.838660979318675 ], [ -73.935314665065277, 40.838684092812279 ], [ -73.935283337751272, 40.83870884691941 ], [ -73.935259280630333, 40.838729139550857 ], [ -73.935233308322921, 40.838752166801555 ], [ -73.93520751744056, 40.838776377396961 ], [ -73.935183249554271, 40.838801194874613 ], [ -73.935157975069529, 40.838827159910551 ], [ -73.935133808589697, 40.838853732496709 ], [ -73.935110799945875, 40.838880880244055 ], [ -73.935089857366762, 40.838907397002892 ], [ -73.935065263928593, 40.838937669462489 ], [ -73.935040997275237, 40.838969609814924 ], [ -73.935018016545698, 40.83900208848128 ], [ -73.934996311119278, 40.839035055028724 ], [ -73.934975907079107, 40.839068513074537 ], [ -73.93495681037453, 40.839102442812028 ], [ -73.934937893530034, 40.83913915067042 ], [ -73.934920504561489, 40.83917632944523 ], [ -73.934904700460152, 40.839213901726851 ], [ -73.934890465846081, 40.839251835089513 ], [ -73.934877837501162, 40.839290106141718 ], [ -73.934866817854086, 40.839328659054743 ], [ -73.934857640198643, 40.839366579959837 ], [ -73.934847033296137, 40.839411036739428 ], [ -73.934838177721645, 40.83945663543247 ], [ -73.934831304428172, 40.839502432452612 ], [ -73.93482641583708, 40.839548380975899 ], [ -73.934823520307788, 40.839594424276164 ], [ -73.934822620270623, 40.83964050652439 ], [ -73.934823715764054, 40.839686592601389 ], [ -73.93482679262209, 40.839732623066475 ], [ -73.93483187815356, 40.839778563716187 ], [ -73.934838945161005, 40.839824343395897 ], [ -73.934847983011551, 40.839869926980036 ], [ -73.934859004809283, 40.839915255943417 ], [ -73.934871970294381, 40.839960278934647 ], [ -73.934886883066397, 40.840004956333345 ], [ -73.934904576880015, 40.840051509226242 ], [ -73.934960254771539, 40.84015640940283 ], [ -73.935516040587743, 40.841220930828854 ], [ -73.935533336064196, 40.84127064862642 ], [ -73.935542042775495, 40.841319704261466 ], [ -73.935542555515724, 40.841373029057763 ], [ -73.935535575782879, 40.841418836851147 ], [ -73.935522549190011, 40.841461796605557 ], [ -73.935497145778882, 40.841514653962648 ], [ -73.93547946250952, 40.841541980345731 ], [ -73.933419265102927, 40.8443665620754 ], [ -73.933452651707029, 40.844379957261843 ], [ -73.932241743698839, 40.846030318273456 ], [ -73.932231492312539, 40.846025681018034 ], [ -73.932212131904876, 40.846052065780938 ], [ -73.932205918726993, 40.84604925529419 ], [ -73.932170719883288, 40.846097228154036 ], [ -73.932178175226497, 40.846100600379849 ], [ -73.932130656356051, 40.846165363770787 ], [ -73.9321231998222, 40.846161991541287 ], [ -73.932119713414792, 40.846166743189897 ], [ -73.931615339310852, 40.845919767951436 ], [ -73.931522669544222, 40.845876849529049 ], [ -73.93142603255346, 40.845839313619301 ] ], [ [ -73.927361617702473, 40.842023872198851 ], [ -73.927358481014736, 40.842040523945201 ], [ -73.927349678002457, 40.842087259402128 ], [ -73.927361617702473, 40.842023872198851 ] ] ], [ [ [ -73.93030524747914, 40.84609980275718 ], [ -73.930486681996527, 40.846154322697522 ], [ -73.930664842541262, 40.846214748515536 ], [ -73.930839397240788, 40.846280966565224 ], [ -73.931010017784885, 40.846352854199374 ], [ -73.931176386544124, 40.846430276171837 ], [ -73.931768627692293, 40.846675108111455 ], [ -73.930861276437341, 40.847911656175782 ], [ -73.9291101639934, 40.847119484698531 ], [ -73.929818868720858, 40.845992814804369 ], [ -73.929903447482431, 40.846013645098125 ], [ -73.93030524747914, 40.84609980275718 ] ] ], [ [ [ -73.92298578964332, 40.856556916249168 ], [ -73.923004317574808, 40.856343650021493 ], [ -73.923055151619039, 40.856056802795869 ], [ -73.923098241724148, 40.855883969655643 ], [ -73.923174811715825, 40.855632346008754 ], [ -73.923247731315641, 40.855451082450955 ], [ -73.923368808418346, 40.855198776869877 ], [ -73.923547899363243, 40.854895491378258 ], [ -73.923705138789799, 40.85466114716597 ], [ -73.924148682516446, 40.854084176069655 ], [ -73.924825892291338, 40.853164705194452 ], [ -73.925083715960881, 40.852807852327665 ], [ -73.925632832931839, 40.852015191463394 ], [ -73.925995288266222, 40.85147708898068 ], [ -73.926378252728171, 40.850927136223753 ], [ -73.926871237133824, 40.850193458835008 ], [ -73.927212565660639, 40.849708986688661 ], [ -73.927468379777565, 40.849362441262571 ], [ -73.928287385706511, 40.848287974576948 ], [ -73.928536583816097, 40.847955557617958 ], [ -73.928765690741301, 40.847632477510139 ], [ -73.928851831726448, 40.84750816637424 ], [ -73.928948305115213, 40.847368943078813 ], [ -73.929893136309573, 40.847809872730672 ], [ -73.930684283895943, 40.84815287108092 ], [ -73.930543194978625, 40.84834342402462 ], [ -73.929938850671164, 40.848092483988587 ], [ -73.929907454797174, 40.848080539697087 ], [ -73.929873930854043, 40.848072599492923 ], [ -73.929839159702951, 40.8480688728243 ], [ -73.929804051969597, 40.848069455696368 ], [ -73.929769527883309, 40.848074333360707 ], [ -73.929736493562245, 40.848083378499844 ], [ -73.929705814924006, 40.848096353012266 ], [ -73.929678296330522, 40.848112917904636 ], [ -73.929654658052243, 40.848132637780104 ], [ -73.929446084638045, 40.848409731440029 ], [ -73.929281565401254, 40.848632210760869 ], [ -73.929159681909951, 40.848793207012193 ], [ -73.929120748899791, 40.848845430552501 ], [ -73.929121905221109, 40.848843107993247 ], [ -73.929053311791975, 40.848933764297087 ], [ -73.92902027042409, 40.848996708182504 ], [ -73.928924809185375, 40.849151055888775 ], [ -73.928846336811432, 40.849261709509285 ], [ -73.928731792958999, 40.849388307420178 ], [ -73.928617086278919, 40.849491630996383 ], [ -73.928524018893185, 40.84956429080416 ], [ -73.928428327420235, 40.849632108763331 ], [ -73.928318203940023, 40.849700703805148 ], [ -73.928225531470531, 40.849759585186881 ], [ -73.928133745333881, 40.849823359418941 ], [ -73.928011369669065, 40.849931587090595 ], [ -73.92782621257642, 40.850124170376972 ], [ -73.927610039092883, 40.85034137766413 ], [ -73.927499305695804, 40.850474825862634 ], [ -73.927431494011572, 40.850566039975149 ], [ -73.927259147509545, 40.850838504918883 ], [ -73.92716023783926, 40.850987628794087 ], [ -73.927055234144717, 40.851192264948139 ], [ -73.926981124616006, 40.851374692819547 ], [ -73.926945539180394, 40.851486837345512 ], [ -73.926929800298055, 40.851566229138314 ], [ -73.92691258021101, 40.851675803571794 ], [ -73.926894155821671, 40.851897004890439 ], [ -73.926890232932138, 40.851990752593927 ], [ -73.926901575606806, 40.852081996697336 ], [ -73.926926305166603, 40.852148284047921 ], [ -73.926971780589852, 40.852216340485697 ], [ -73.927012124374514, 40.852254345152815 ], [ -73.927073066209573, 40.852307811662747 ], [ -73.927177203613255, 40.852366299541636 ], [ -73.927495921684908, 40.852496832042711 ], [ -73.92465386475719, 40.856382502990506 ], [ -73.924620697809814, 40.85642792190211 ], [ -73.924558885538246, 40.856540081776451 ], [ -73.92452617663038, 40.856616514768781 ], [ -73.924512300251678, 40.856655299741576 ], [ -73.924500113546387, 40.856694408193995 ], [ -73.924480814108932, 40.856773421748116 ], [ -73.924468372401819, 40.856853233120262 ], [ -73.924464735634714, 40.85689332779944 ], [ -73.924462826808622, 40.856933483942406 ], [ -73.924464229147802, 40.857014518236895 ], [ -73.924480968177022, 40.857132832987723 ], [ -73.924493161636462, 40.857191279224928 ], [ -73.924525152203373, 40.857307094278113 ], [ -73.92456721192606, 40.857421035678946 ], [ -73.924582650661421, 40.857454203645752 ], [ -73.92480822074036, 40.857884265896608 ], [ -73.924827195125474, 40.857911247059079 ], [ -73.924847363221843, 40.857937739128857 ], [ -73.924868681193161, 40.857963701554731 ], [ -73.924891137218665, 40.857989100109727 ], [ -73.924914692181616, 40.858013915857391 ], [ -73.92498907620292, 40.85808237452413 ], [ -73.9250424360484, 40.858124135242996 ], [ -73.925099182704926, 40.858163234484003 ], [ -73.925128697652553, 40.858181695691286 ], [ -73.925188796988252, 40.858215819150814 ], [ -73.925252018039515, 40.858246762267164 ], [ -73.925317916324786, 40.858274270809169 ], [ -73.925351762427553, 40.858286702375274 ], [ -73.925386184772933, 40.858298239216275 ], [ -73.925421109864246, 40.858308847065615 ], [ -73.925456486702799, 40.858318524088865 ], [ -73.925492296313806, 40.858327267571838 ], [ -73.925528486545787, 40.858335045963372 ], [ -73.925564999274584, 40.858341865528978 ], [ -73.925601814342258, 40.8583477208525 ], [ -73.925638877209821, 40.858352593888604 ], [ -73.925676132137127, 40.858356480098763 ], [ -73.925713188945707, 40.858359354017786 ], [ -73.925747450011841, 40.858361400375685 ], [ -73.925782107004125, 40.858362573502149 ], [ -73.925816811247273, 40.858362855162774 ], [ -73.925851505822408, 40.858362234515113 ], [ -73.925886142089652, 40.858360721433307 ], [ -73.925955132950818, 40.858355018799408 ], [ -73.926023439838133, 40.858345775856826 ], [ -73.926057243669987, 40.858339839880109 ], [ -73.926090763807508, 40.858333040141225 ], [ -73.926123959925363, 40.858325375714109 ], [ -73.926156803546547, 40.858316856486098 ], [ -73.926189238913452, 40.858307494128283 ], [ -73.926221222117832, 40.858297310224714 ], [ -73.926252755530754, 40.858286304777216 ], [ -73.926283770355383, 40.858274483145216 ], [ -73.926313462070198, 40.858262197807605 ], [ -73.926345591216503, 40.858248710062306 ], [ -73.926377829600412, 40.858234028327153 ], [ -73.926409385736761, 40.858218514094325 ], [ -73.926470262659379, 40.858185011430628 ], [ -73.926527919357099, 40.858148369374391 ], [ -73.926582070974277, 40.858108774150651 ], [ -73.92663244808287, 40.858066405691133 ], [ -73.926656162266639, 40.858044247985774 ], [ -73.926700448426288, 40.857998117876029 ], [ -73.926720977637771, 40.85797420757963 ], [ -73.926749164894446, 40.857937481855139 ], [ -73.92675898536028, 40.857924410262697 ], [ -73.926785409745023, 40.857883733857513 ], [ -73.926808749342129, 40.857848358479181 ], [ -73.92683900611604, 40.85780623650323 ], [ -73.926863962301255, 40.857774012055032 ], [ -73.927058367629584, 40.857906509068343 ], [ -73.927012404037782, 40.85797705235958 ], [ -73.926963749304917, 40.858064824818079 ], [ -73.926922384268849, 40.858155398796455 ], [ -73.92688343736728, 40.858267615783802 ], [ -73.926757560692579, 40.858636519194185 ], [ -73.926725353543517, 40.858720711726498 ], [ -73.926714019158382, 40.858742762945582 ], [ -73.926687022166249, 40.858788242181546 ], [ -73.926656013246912, 40.858832198832388 ], [ -73.926621130172236, 40.858874454685406 ], [ -73.926602279182092, 40.858894884731519 ], [ -73.926582524968808, 40.858914812626409 ], [ -73.92654038999811, 40.858953068362908 ], [ -73.926494914014341, 40.858989063524902 ], [ -73.926409241653687, 40.859045451660648 ], [ -73.926372096601057, 40.859068348148526 ], [ -73.925950712407612, 40.859311780026879 ], [ -73.925797181576854, 40.85940534861043 ], [ -73.925735866265342, 40.859447764586065 ], [ -73.925676937474165, 40.859491012318472 ], [ -73.925619732855466, 40.859535566843242 ], [ -73.92556427143667, 40.859581383150733 ], [ -73.925481040821467, 40.859654689682259 ], [ -73.925342804367787, 40.859798608552488 ], [ -73.925303233938479, 40.859841819089361 ], [ -73.925256121854915, 40.859899302903436 ], [ -73.9252428112041, 40.859916775500658 ], [ -73.925211759858385, 40.8599581185048 ], [ -73.925165714523402, 40.860022413381408 ], [ -73.925124468887745, 40.860081634388983 ], [ -73.925043916496193, 40.860208601659856 ], [ -73.925003111534082, 40.860282831381738 ], [ -73.924967961872198, 40.860351619500889 ], [ -73.924889625862235, 40.860532985821138 ], [ -73.92486594330353, 40.860599333838024 ], [ -73.92484468924961, 40.860666151686218 ], [ -73.924825910158688, 40.860733267403553 ], [ -73.924805851720194, 40.860813605983395 ], [ -73.924789399241519, 40.860894705122114 ], [ -73.924776646870598, 40.860976180373214 ], [ -73.924762253601088, 40.861139887321855 ], [ -73.924764876904874, 40.861339371031754 ], [ -73.923103562684844, 40.858747481946182 ], [ -73.923100835889173, 40.858704474496371 ], [ -73.92301332984259, 40.857324308689066 ], [ -73.922986306203612, 40.856824706400189 ], [ -73.92298578964332, 40.856556916249168 ] ] ] ] } }
]
}
