{
"type": "FeatureCollection",
"name": "inwood_hill",
"crs": { "type": "name", "properties": { "name": "urn:ogc:def:crs:OGC:1.3:CRS84" } },
"features": [
{ "type": "Feature", "properties": { "name": "Inwood Hill Park", "site_id": "inwood_hill", "area_acres": 73.0, "source": "NYC Parks Properties (enfh-gkve)" }, "geometry": { "type": "MultiPolygon", "coordinates": [ [ [ [ -73.921721761751598, 40.86944393751925 ], [ -73.921928696191216, 40.869354201708745 ], [ -73.922043912693397, 40.869306396102587 ], [ -73.922211005538514, 40.869568588965571 ], [ -73.922477483087661, 40.869472384463393 ], [ -73.923017947038986, 40.869277957021396 ], [ -73.923053299919772, 40.869335632604965 ], [ -73.923604160548564, 40.869137227384456 ], [ -73.9234005722695, 40.868817769114266 ], [ -73.923424550644867, 40.868852703291935 ], [ -73.923443556639185, 40.868876097100276 ], [ -73.923469402373186, 40.868903642193729 ], [ -73.923489074839679, 40.868922068438501 ], [ -73.923517873799796, 40.868945928876947 ], [ -73.923562424567805, 40.868977081097462 ], [ -73.923586081690431, 40.868991307382679 ], [ -73.923609410823019, 40.869003992709203 ], [ -73.923631623337002, 40.869014951955087 ], [ -73.92365832706362, 40.869026806552647 ], [ -73.923676783328943, 40.869034220780989 ], [ -73.923700837028633, 40.869042987640071 ], [ -73.923721958557707, 40.869049536452522 ], [ -73.923743746512557, 40.869056291913473 ], [ -73.923775059683763, 40.869064237805787 ], [ -73.923806602168412, 40.869070830406066 ], [ -73.923837075228974, 40.869075911271345 ], [ -73.92386288010961, 40.869079257408231 ], [ -73.923898042131569, 40.869082437717402 ], [ -73.923943174777477, 40.869084237835047 ], [ -73.923976801077288, 40.869083925912179 ], [ -73.924005086994569, 40.869082570397886 ], [ -73.92403841256781, 40.869079677457627 ], [ -73.924074202801179, 40.869074981549574 ], [ -73.924112627817934, 40.869068047847072 ], [ -73.925988813697927, 40.868655047820447 ], [ -73.926093200793872, 40.868630589907085 ], [ -73.92619173796345, 40.868599202496434 ], [ -73.926341612363146, 40.868532256854131 ], [ -73.92645573833498, 40.868461344996469 ], [ -73.926991173316125, 40.86809164342953 ], [ -73.927121797211115, 40.867962981271518 ], [ -73.927551784593533, 40.867663886222303 ], [ -73.92788949556035, 40.867428975530096 ], [ -73.928656669949319, 40.866895322708558 ], [ -73.930765674914895, 40.868691467736291 ], [ -73.929669154164415, 40.870552434735153 ], [ -73.928538627354357, 40.872290060393908 ], [ -73.928422814074722, 40.872495069448512 ], [ -73.928299251688188, 40.872697455845611 ], [ -73.928168043530064, 40.872897049432723 ], [ -73.928029300051932, 40.87309368546353 ], [ -73.927883135268942, 40.873287199193129 ], [ -73.927729671502306, 40.873477428582454 ], [ -73.927569035817626, 40.873664216997454 ], [ -73.927401364777168, 40.873847406909171 ], [ -73.927226794942456, 40.874026846190766 ], [ -73.927045472368178, 40.87420238542272 ], [ -73.926857550229414, 40.874373877891173 ], [ -73.926724280609875, 40.874494081446208 ], [ -73.926586560277897, 40.874611358129087 ], [ -73.926444499661002, 40.87472561344314 ], [ -73.926298213931886, 40.874836755596412 ], [ -73.924868817242711, 40.875819682690917 ], [ -73.922784707725413, 40.877252739971837 ], [ -73.922750819504913, 40.877235986232606 ], [ -73.922694991304354, 40.877208385822961 ], [ -73.92254455001995, 40.87711671255979 ], [ -73.922440141615411, 40.877027902078346 ], [ -73.922355530287845, 40.876941201157216 ], [ -73.922137482128505, 40.876706184537248 ], [ -73.921900015074627, 40.876453794750574 ], [ -73.921526885337286, 40.87612023507014 ], [ -73.921237448041751, 40.87589655751632 ], [ -73.920899281751517, 40.875670476652843 ], [ -73.92088886668283, 40.875664628948897 ], [ -73.920614873373509, 40.875510796842335 ], [ -73.920209454235916, 40.875286651431729 ], [ -73.919781985254687, 40.875102689748502 ], [ -73.919584273103283, 40.875019500135103 ], [ -73.919507183564988, 40.874987586223639 ], [ -73.919462678127928, 40.874969160903248 ], [ -73.919099835563529, 40.874855820218741 ], [ -73.918615434136711, 40.874721767048207 ], [ -73.918156100087742, 40.874626601892111 ], [ -73.917527097562541, 40.874529112982515 ], [ -73.91678393069455, 40.874476616812558 ], [ -73.916246412691834, 40.874475834446002 ], [ -73.916518143851391, 40.874426282965892 ], [ -73.91687497888114, 40.874324517037735 ], [ -73.917131520216842, 40.874221900907941 ], [ -73.917328666651514, 40.874123121876316 ], [ -73.917543182700996, 40.87399166359377 ], [ -73.917809675541648, 40.873798292850061 ], [ -73.918000740718782, 40.873665166411186 ], [ -73.918051134068719, 40.87362651092721 ], [ -73.918101663864789, 40.873590680349615 ], [ -73.918164024594518, 40.873550061238952 ], [ -73.918237960093791, 40.873506491291117 ], [ -73.918366735720369, 40.873440890033777 ], [ -73.918717014432602, 40.873275887771463 ], [ -73.919071062092542, 40.873161048789868 ], [ -73.919616440821301, 40.873034058591742 ], [ -73.920386908876196, 40.872890865750534 ], [ -73.920740278140514, 40.872815534606417 ], [ -73.920548872008453, 40.872170391207248 ], [ -73.920703328568322, 40.872135228913343 ], [ -73.920973729833449, 40.872107826137913 ], [ -73.921440002627776, 40.872094113994287 ], [ -73.921450264576109, 40.870811206552865 ], [ -73.920934874006022, 40.869987148661984 ], [ -73.921721761751598, 40.86944393751925 ] ] ], [ [ [ -73.931072503045016, 40.868952768907903 ], [ -73.930360116436191, 40.870308740308388 ], [ -73.930303871470116, 40.870476455692149 ], [ -73.930240691694564, 40.870642742278527 ], [ -73.930170638919975, 40.870807435304144 ], [ -73.930093784449014, 40.870970370010554 ], [ -73.930010203141961, 40.871131385242265 ], [ -73.929919979349904, 40.871290321649539 ], [ -73.929808637099001, 40.871520137899672 ], [ -73.929690708712215, 40.871748053591908 ], [ -73.929566250001486, 40.871973960681821 ], [ -73.929435320342165, 40.872197749325245 ], [ -73.929297982666398, 40.872419314181876 ], [ -73.929154302283081, 40.872638549011604 ], [ -73.928997416030981, 40.872861390990423 ], [ -73.928832899510468, 40.873081038512773 ], [ -73.928660863155855, 40.873297342133675 ], [ -73.928481426896226, 40.873510153313674 ], [ -73.928294711849546, 40.873719326214825 ], [ -73.928100846255191, 40.873924716804019 ], [ -73.927899964284919, 40.874126185553934 ], [ -73.927692202487847, 40.874323593838618 ], [ -73.927477703347719, 40.874516805737343 ], [ -73.927256612909332, 40.874705688933233 ], [ -73.927029084337278, 40.874890114715939 ], [ -73.926795273173013, 40.875069956177668 ], [ -73.926555339705459, 40.875245090015909 ], [ -73.926309446598154, 40.875415396531849 ], [ -73.926198176482572, 40.875487937171528 ], [ -73.926082037680899, 40.875555937926684 ], [ -73.925961350721778, 40.87561921258748 ], [ -73.925836449176117, 40.87567758575895 ], [ -73.925707678468513, 40.875730894661643 ], [ -73.925575394685637, 40.875778993633382 ], [ -73.925439964581102, 40.875821749626908 ], [ -73.925301759642309, 40.875859043106864 ], [ -73.925161164389294, 40.875890772557554 ], [ -73.925018565703638, 40.875916849073398 ], [ -73.925014732028401, 40.875919472405094 ], [ -73.925001286844534, 40.875910276891098 ], [ -73.926427110953682, 40.874919249606762 ], [ -73.926627779543864, 40.874765782923902 ], [ -73.926822418416208, 40.874607905076587 ], [ -73.927010861337692, 40.87444575466494 ], [ -73.92719294326848, 40.874279469389485 ], [ -73.927368507470277, 40.874109194159871 ], [ -73.927537403139141, 40.873935076590861 ], [ -73.927699484219687, 40.873757266100867 ], [ -73.927854610588525, 40.873575916614108 ], [ -73.928038680464041, 40.87334327514526 ], [ -73.928216321223076, 40.873107770324502 ], [ -73.928387454503294, 40.872869506589133 ], [ -73.928552005507726, 40.872628585676622 ], [ -73.928709902997369, 40.872385113828358 ], [ -73.92886107929732, 40.872139195486206 ], [ -73.930513074853749, 40.86948791271557 ], [ -73.930911609647367, 40.868815749742204 ], [ -73.931072503045016, 40.868952768907903 ] ] ], [ [ [ -73.92945798650959, 40.872494176049976 ], [ -73.929616828442207, 40.872220216598514 ], [ -73.929767316975258, 40.871943552167536 ], [ -73.929909370185314, 40.871664331320154 ], [ -73.931217199224875, 40.869075994407979 ], [ -73.931255725942293, 40.869108803267309 ], [ -73.930712276741161, 40.87041786730699 ], [ -73.930510185040447, 40.870905839459773 ], [ -73.930061286297743, 40.87202094398981 ], [ -73.929975390396933, 40.872207817089794 ], [ -73.929887091282666, 40.872394043009599 ], [ -73.929716202749532, 40.872739207006255 ], [ -73.929537054821068, 40.873081949676454 ], [ -73.929349709197368, 40.873422157558522 ], [ -73.929154226395667, 40.87375971808914 ], [ -73.929353305540914, 40.873825727052065 ], [ -73.929471541740568, 40.873632045835116 ], [ -73.929654441808964, 40.873293388400633 ], [ -73.929831648821292, 40.87295299105368 ], [ -73.9300031307626, 40.872610909631007 ], [ -73.930121290867987, 40.872367253257977 ], [ -73.930236548120234, 40.8721227962656 ], [ -73.930309562576653, 40.871964228348425 ], [ -73.930572332314796, 40.871205408192111 ], [ -73.930909333711554, 40.870346353383432 ], [ -73.93095102713005, 40.870211214080811 ], [ -73.931000033279858, 40.870077497402569 ], [ -73.931056268848849, 40.869945429312494 ], [ -73.931119637478702, 40.869815235765259 ], [ -73.931190030955264, 40.869687139105523 ], [ -73.931267330396011, 40.86956135716806 ], [ -73.931351402689742, 40.86943810507681 ], [ -73.931426193519485, 40.869253974358038 ], [ -73.932240917976955, 40.869947785211608 ], [ -73.932017255340099, 40.870360112621995 ], [ -73.931949182158036, 40.870485605124472 ], [ -73.931861464031897, 40.870647314445613 ], [ -73.930985396760704, 40.872262299969549 ], [ -73.930682243371763, 40.872821129736863 ], [ -73.929957178825049, 40.874155884522871 ], [ -73.929866750530181, 40.87432473865578 ], [ -73.929417835391504, 40.875162983191458 ], [ -73.929196146916084, 40.875554561434406 ], [ -73.929091542357028, 40.875739327746658 ], [ -73.929041170124677, 40.875828301003857 ], [ -73.928871766057668, 40.87612752066871 ], [ -73.928867986318409, 40.876134196356489 ], [ -73.927657152270228, 40.876928861611155 ], [ -73.926820820724259, 40.877222642505515 ], [ -73.927376209785578, 40.87668267462422 ], [ -73.927472076821886, 40.876653722999244 ], [ -73.92778893139338, 40.876264717383393 ], [ -73.927951402433393, 40.876074332443949 ], [ -73.928152444706498, 40.875764949308483 ], [ -73.928785906058422, 40.874826208677824 ], [ -73.929260590404809, 40.87397760151741 ], [ -73.929334468541697, 40.873856584252962 ], [ -73.929135067581711, 40.873791923991625 ], [ -73.929023977461, 40.873975784028211 ], [ -73.928910471109987, 40.87415879240293 ], [ -73.928743330784172, 40.874449031894166 ], [ -73.928572770052099, 40.8747381235912 ], [ -73.928245742639746, 40.875339324217848 ], [ -73.927577831013224, 40.876301184526632 ], [ -73.927466075517316, 40.876435770579477 ], [ -73.927347051163522, 40.876566716676273 ], [ -73.927220962230891, 40.876693796000765 ], [ -73.927219616660835, 40.876695095456476 ], [ -73.927113171937577, 40.876794312450791 ], [ -73.926648380318454, 40.877246479700467 ], [ -73.92431833142065, 40.877568544739752 ], [ -73.924002600679898, 40.87751369297024 ], [ -73.923107777068893, 40.877358230785227 ], [ -73.923071338102005, 40.877349601441495 ], [ -73.922970662800793, 40.87732575871388 ], [ -73.923082917269426, 40.877258188051449 ], [ -73.924198332295617, 40.876586760625628 ], [ -73.924412402209924, 40.876519265398066 ], [ -73.924623612312843, 40.876446762994043 ], [ -73.924831758431495, 40.876369325335112 ], [ -73.925018113468838, 40.876294723187655 ], [ -73.925201624105355, 40.876216163952613 ], [ -73.925341075542818, 40.876146090942981 ], [ -73.925475888966815, 40.876070971136862 ], [ -73.925605747409932, 40.875990980841621 ], [ -73.925730346947475, 40.875906307179633 ], [ -73.92584939313673, 40.875817149886871 ], [ -73.926074792161486, 40.87568766205807 ], [ -73.926295227268824, 40.875553340399193 ], [ -73.926510516809614, 40.875414294682322 ], [ -73.926720486253984, 40.875270638286494 ], [ -73.926924964632121, 40.87512248819553 ], [ -73.927123784533606, 40.874969965898501 ], [ -73.927316783295353, 40.874813195589091 ], [ -73.927540834646152, 40.874635510808993 ], [ -73.927758200260996, 40.874453104647323 ], [ -73.927968706790168, 40.874266121111368 ], [ -73.92817218681634, 40.874074709614831 ], [ -73.928368480045563, 40.873879020476593 ], [ -73.928557428555351, 40.873679211220463 ], [ -73.92873888510718, 40.873475438476071 ], [ -73.928912703647484, 40.873267866077221 ], [ -73.929290874287076, 40.87276528646067 ], [ -73.92945798650959, 40.872494176049976 ] ] ] ] } }
]
}
