{
"type": "FeatureCollection",
"name": "west_harlem",
"crs": { "type": "name", "properties": { "name": "urn:ogc:def:crs:OGC:1.3:CRS84" } },
"features": [
{ "type": "Feature", "properties": { "name": "West Harlem Forest Restoration", "extent": "W143rd to W153rd Street", "area_acres": 137.89, "area_hectares": 55.803, "partner": "Riverside Park Conservancy / NAC / NYC Parks", "funder": "Treebed LLC", "grant_usd": 3250000, "duration_years": 3, "start_year": 2026, "note": "West Harlem footprint uses the full NYC Parks Riverside M072 polygon so LiDAR tree counts match other park sites.", "site_id": "west_harlem", "grant_acres": 7.5, "source": "NYC Parks Riverside (M072)" }, "geometry": { "type": "MultiPolygon", "coordinates": [ [ [ [ -73.952189011575996, 40.827365559985935 ], [ -73.952198196686268, 40.82736556379367 ], [ -73.952207383071325, 40.827363792724988 ], [ -73.952214983234569, 40.827360436126568 ], [ -73.952221098354286, 40.827356570132586 ], [ -73.952226184959812, 40.827352029241212 ], [ -73.952355586843836, 40.82718225656663 ], [ -73.952365443079941, 40.827168774820542 ], [ -73.952368488506224, 40.827162244785917 ], [ -73.952370390794215, 40.827154529227265 ], [ -73.952370716907112, 40.827146099825299 ], [ -73.952369079423264, 40.827138292755066 ], [ -73.952365630766522, 40.827131811366279 ], [ -73.952357866989232, 40.827118683439757 ], [ -73.952783688720515, 40.826559820247603 ], [ -73.952657647098107, 40.826501999990406 ], [ -73.953062954970761, 40.825970284431712 ], [ -73.953152208933034, 40.825864598952307 ], [ -73.953262447151403, 40.825761102908935 ], [ -73.953389441931591, 40.825661898991008 ], [ -73.95348600741977, 40.825602831255729 ], [ -73.953613377387583, 40.825540986999684 ], [ -73.953743833939839, 40.825484382023305 ], [ -73.95386377206458, 40.825444487689794 ], [ -73.953978024595031, 40.825420087590608 ], [ -73.954081733690245, 40.825407695791256 ], [ -73.954163182914215, 40.825408366646407 ], [ -73.954229478932973, 40.825413682490186 ], [ -73.955116853918284, 40.82443604169692 ], [ -73.955396672775962, 40.823872802829591 ], [ -73.955697358025319, 40.823262055685611 ], [ -73.955830764095268, 40.822988547914001 ], [ -73.955959523019445, 40.822728288999436 ], [ -73.956021112717778, 40.822604660001176 ], [ -73.956075339521959, 40.822513626118116 ], [ -73.956140107680255, 40.822431893839465 ], [ -73.95620510857259, 40.822367327767303 ], [ -73.9562991757861, 40.822294558352411 ], [ -73.956470127437541, 40.822147126265662 ], [ -73.956627367381103, 40.82201179323355 ], [ -73.956951282074797, 40.821733947683477 ], [ -73.957109093834816, 40.821596700645145 ], [ -73.957387128156796, 40.821359568020533 ], [ -73.957483154593561, 40.821279145936252 ], [ -73.957571008755707, 40.82122674960835 ], [ -73.957646558285745, 40.821193508551382 ], [ -73.957734171473163, 40.821159936882779 ], [ -73.957827180275046, 40.821137752094238 ], [ -73.95791422227677, 40.821114908591248 ], [ -73.957976041376213, 40.821096673577316 ], [ -73.95803982290127, 40.821075491920269 ], [ -73.958135045155814, 40.821037298667171 ], [ -73.958285354622404, 40.820965549375416 ], [ -73.958416629404809, 40.820880113585972 ], [ -73.958158176956758, 40.821243861977827 ], [ -73.95797896789837, 40.821472357141438 ], [ -73.957214618555511, 40.822286360450796 ], [ -73.956666539096503, 40.822870031076114 ], [ -73.955866260864752, 40.823759103209525 ], [ -73.955195595743916, 40.82448231367318 ], [ -73.95445454487421, 40.825277821983846 ], [ -73.9539791241789, 40.825772201597225 ], [ -73.952945036103955, 40.826917821402901 ], [ -73.952599007194678, 40.827296917891672 ], [ -73.952518602591994, 40.827387424212326 ], [ -73.952123049557684, 40.82782115980428 ], [ -73.951934864390722, 40.82803191176346 ], [ -73.951808209143934, 40.82818013444053 ], [ -73.951596968527667, 40.828446572723877 ], [ -73.951469402638978, 40.828623803186211 ], [ -73.951321692547737, 40.828845560786 ], [ -73.951128108283996, 40.829167110526569 ], [ -73.951001998314766, 40.829384093420025 ], [ -73.950866725791172, 40.829636423895593 ], [ -73.950683939248407, 40.830023971118834 ], [ -73.95053094951092, 40.830406081919072 ], [ -73.95039912248086, 40.830805478489346 ], [ -73.950258313240369, 40.831268420721912 ], [ -73.949960385890222, 40.832229313221717 ], [ -73.949895615157772, 40.832444424954254 ], [ -73.949878788810736, 40.832418605867545 ], [ -73.949867680736844, 40.832387735688698 ], [ -73.949859921371797, 40.832346568008411 ], [ -73.949863207831186, 40.83229614534433 ], [ -73.949874153168693, 40.832248725556163 ], [ -73.949883700755706, 40.832191795936531 ], [ -73.94989842402866, 40.832075679055237 ], [ -73.949906249273752, 40.83193957899941 ], [ -73.949911207476504, 40.831818082817144 ], [ -73.949904640811866, 40.831706074641218 ], [ -73.949886419224654, 40.831524453161208 ], [ -73.949882457436644, 40.831426419086341 ], [ -73.949886934091623, 40.831297343221451 ], [ -73.949909826188943, 40.831188316764042 ], [ -73.949947638251913, 40.831107765017087 ], [ -73.950020628113933, 40.830974680136038 ], [ -73.950097412094038, 40.830853347404009 ], [ -73.950166960858681, 40.830761520706609 ], [ -73.95021431079843, 40.83069580503745 ], [ -73.950241095449499, 40.830643866151732 ], [ -73.950261869890895, 40.830594408232095 ], [ -73.95027207115173, 40.830559919177517 ], [ -73.95027902240102, 40.830503809640959 ], [ -73.950337136839494, 40.830009083894645 ], [ -73.950353311539985, 40.829903510532695 ], [ -73.95037068974797, 40.829791243405218 ], [ -73.950404586609537, 40.829639704688866 ], [ -73.950458711030649, 40.829490842816661 ], [ -73.950518325749684, 40.829368528963215 ], [ -73.950635411342915, 40.82918112939938 ], [ -73.950861046850207, 40.828861474380801 ], [ -73.951112013887695, 40.828508610381135 ], [ -73.951260888641258, 40.828326559962825 ], [ -73.951365570737138, 40.828222525828437 ], [ -73.951450839332011, 40.828134059291123 ], [ -73.951520727134678, 40.828050429087838 ], [ -73.951603770028015, 40.827931139349616 ], [ -73.95167660618641, 40.827840364856939 ], [ -73.951783147434398, 40.827730683208593 ], [ -73.951908102154647, 40.82761490558353 ], [ -73.951944303539676, 40.827603150301456 ], [ -73.952178021383247, 40.827364990818374 ], [ -73.952189011575996, 40.827365559985935 ] ] ], [ [ [ -73.94996286134284, 40.82976692400679 ], [ -73.949975607303259, 40.829808986251741 ], [ -73.949962754296649, 40.829909267894827 ], [ -73.949941312644668, 40.830103363867543 ], [ -73.949936942250062, 40.830252175952438 ], [ -73.949936844884064, 40.830381579722193 ], [ -73.9498813489338, 40.830549779758833 ], [ -73.949817382134142, 40.830656510104447 ], [ -73.949736385037582, 40.830753527458711 ], [ -73.949676671388971, 40.83086672963141 ], [ -73.949604165022379, 40.830999336345961 ], [ -73.949565712599195, 40.831157839028613 ], [ -73.949565594892377, 40.831313122987659 ], [ -73.94958672672783, 40.831529883099677 ], [ -73.949595070937065, 40.831759578620051 ], [ -73.949590595529813, 40.832044264434842 ], [ -73.94956497692165, 40.832128364831711 ], [ -73.949513927342593, 40.83204746547456 ], [ -73.949467115503666, 40.831995683642646 ], [ -73.949407547878934, 40.831914780503872 ], [ -73.949377777658455, 40.831856536055255 ], [ -73.949339511408354, 40.831769171272967 ], [ -73.949331062142292, 40.831678585904314 ], [ -73.94934821190499, 40.831529778590337 ], [ -73.949382423782936, 40.831348629388451 ], [ -73.94946784277947, 40.831038097923773 ], [ -73.949566092690958, 40.830656400484898 ], [ -73.94969418706269, 40.830232660148923 ], [ -73.949788061333678, 40.830003010028307 ], [ -73.949890459072805, 40.82976365799211 ], [ -73.949916023972605, 40.829750728084761 ], [ -73.949937319538975, 40.829750737331238 ], [ -73.94996286134284, 40.82976692400679 ] ] ] ] } }
]
}
