{
  "type": "FeatureCollection",
  "columns": {
    "count": "Long<0, 4294967295>",
    "label": "Byte<0, 1>",
    "system:index": "String"
  },
  "features": [
    {
      "type": "Feature",
      "geometry": {
        "geodesic": false,
        "type": "Polygon",
        "coordinates": [
          [
            [
              -73.92982074705361,
              40.87442340577917
            ],
            [
              -73.9297309155252,
              40.87442340577917
            ],
            [
              -73.9297309155252,
              40.87451323730758
            ],
            [
              -73.92982074705361,
              40.87451323730758
            ],
            [
              -73.92982074705361,
              40.87442340577917
            ]
          ]
        ]
      },
      "id": "-822983+455012",
      "properties": {
        "count": 1,
        "label": 1
      }
    }
  ]
}