{
"type": "FeatureCollection",
"name": "nyc_forms_trees_clipped",
"crs": { "type": "name", "properties": { "name": "urn:ogc:def:crs:OGC:1.3:CRS84" } },
"features": [
{ "type": "Feature", "properties": { "tpcondition": "Poor", "stumpdiameter": null, "riskratingdate": null, "riskrating": null, "objectid": "88023", "globalid": "6BA8E72B-1901-4EF3-ABFF-D11680AB4A9B", "tpstructure": "Retired", "plantingspaceglobalid": "21431016-EDB8-4A0B-B122-673125800C87", "createddate": "2015-03-03T05:00:00", "dbh": "24", "planteddate": null, "updateddate": "2018-03-27T14:00:42", "genusspecies": "Acer platanoides - Norway maple" }, "geometry": { "type": "Point", "coordinates": [ -73.832441809021304, 40.887625043155431 ] } },
{ "type": "Feature", "properties": { "tpcondition": "Fair", "stumpdiameter": null, "riskratingdate": "2025-02-27T17:02:55", "riskrating": "7", "objectid": "101625", "globalid": "4AE98030-BC89-459C-85E2-BC7F9899B929", "tpstructure": "Full", "plantingspaceglobalid": "8C1FCAAC-6EBC-4889-9D5B-D02EAC65D141", "createddate": "2015-03-13T04:00:00", "dbh": "25", "planteddate": null, "updateddate": "2025-02-27T17:02:55", "genusspecies": "Zelkova serrata - Japanese zelkova" }, "geometry": { "type": "Point", "coordinates": [ -73.786279755237231, 40.842228958804085 ] } },
{ "type": "Feature", "properties": { "tpcondition": "Critical", "stumpdiameter": null, "riskratingdate": null, "riskrating": null, "objectid": "105642", "globalid": "3D673D3B-1D62-4205-BC91-BDFBC5C1A55F", "tpstructure": "Retired", "plantingspaceglobalid": "A4437875-C119-4CB3-8028-BEAD5EC925B3", "createddate": "2015-03-17T04:00:00", "dbh": "17", "planteddate": null, "updateddate": "2018-04-11T13:58:49", "genusspecies": "Acer platanoides - Norway maple" }, "geometry": { "type": "Point", "coordinates": [ -73.824970010543012, 40.840237173818913 ] } },
{ "type": "Feature", "properties": { "tpcondition": "Dead", "stumpdiameter": "19", "riskratingdate": "2019-07-15T10:12:41", "riskrating": "3", "objectid": "116055", "globalid": "8F794CAF-CF65-4AFA-BF3C-72FE6480F679", "tpstructure": "Retired", "plantingspaceglobalid": "9B021F4D-38E3-432D-8588-59F860683C64", "createddate": "2015-03-24T04:00:00", "dbh": null, "planteddate": null, "updateddate": "2024-02-05T21:00:05", "genusspecies": "Quercus rubra - northern red oak" }, "geometry": { "type": "Point", "coordinates": [ -73.835686814010799, 40.879409944875768 ] } }
]
}
