{
"type": "FeatureCollection",
"name": "nyc_forms_trees_clipped",
"crs": { "type": "name", "properties": { "name": "urn:ogc:def:crs:OGC:1.3:CRS84" } },
"features": [
{ "type": "Feature", "properties": { "tpcondition": "Dead", "stumpdiameter": null, "riskratingdate": "2022-12-19T17:14:00", "riskrating": "8", "objectid": "89631", "globalid": "7849F96D-8739-4FD6-A430-6EAA7256D512", "tpstructure": "Stump", "plantingspaceglobalid": "6D5A04A7-CF2F-48B1-92DA-77D6E0C68907", "createddate": "2015-03-04T05:00:00", "dbh": "18", "planteddate": null, "updateddate": "2023-03-28T12:27:57", "genusspecies": "Styphnolobium japonicum - Japanese pagoda tree" }, "geometry": { "type": "Point", "coordinates": [ -73.918891475887804, 40.866099356680991 ] } },
{ "type": "Feature", "properties": { "tpcondition": "Unknown", "stumpdiameter": null, "riskratingdate": null, "riskrating": null, "objectid": "92829", "globalid": "54722507-DB54-4499-86A1-FEC6EB922E66", "tpstructure": "Retired", "plantingspaceglobalid": "CE09E6F2-15F7-4353-93F1-D9EE92A98A02", "createddate": "2015-03-09T04:00:00", "dbh": "9", "planteddate": null, "updateddate": "2016-08-05T12:32:00", "genusspecies": "Tilia cordata - littleleaf linden" }, "geometry": { "type": "Point", "coordinates": [ -73.946141230302757, 40.831152781131848 ] } },
{ "type": "Feature", "properties": { "tpcondition": "Unknown", "stumpdiameter": null, "riskratingdate": null, "riskrating": null, "objectid": "93228", "globalid": "74F37A66-C783-4577-ADAA-734146D5AD48", "tpstructure": "Retired", "plantingspaceglobalid": "AC4BB13F-02D6-4975-A18F-1FFBD4B72EF3", "createddate": "2015-03-09T04:00:00", "dbh": "8", "planteddate": null, "updateddate": "2016-01-26T13:26:00", "genusspecies": "Tilia cordata - littleleaf linden" }, "geometry": { "type": "Point", "coordinates": [ -73.946166315063536, 40.83116410964076 ] } },
{ "type": "Feature", "properties": { "tpcondition": "Good", "stumpdiameter": null, "riskratingdate": "2023-03-17T12:23:00", "riskrating": "6", "objectid": "102025", "globalid": "B96F9DE3-E4D7-4046-A347-DA0A416BC5DA", "tpstructure": "Full", "plantingspaceglobalid": "E2245737-7649-422A-A8A9-835FAC7FE8DA", "createddate": "2015-03-15T04:00:00", "dbh": "11", "planteddate": null, "updateddate": "2023-03-17T12:23:00", "genusspecies": "Quercus palustris - pin oak" }, "geometry": { "type": "Point", "coordinates": [ -73.946883268964271, 40.836417815617487 ] } },
{ "type": "Feature", "properties": { "tpcondition": "Unknown", "stumpdiameter": null, "riskratingdate": null, "riskrating": null, "objectid": "103239", "globalid": "56B2D7D6-18B9-460C-84CD-1FB4C6223092", "tpstructure": "Retired", "plantingspaceglobalid": "BAA0D416-118A-4499-B2AE-21DCB54E4948", "createddate": "2015-03-16T04:00:00", "dbh": "15", "planteddate": null, "updateddate": "2018-12-27T14:57:49", "genusspecies": "Ulmus americana - American elm" }, "geometry": { "type": "Point", "coordinates": [ -73.936041968136365, 40.827716359373831 ] } },
{ "type": "Feature", "properties": { "tpcondition": "Fair", "stumpdiameter": null, "riskratingdate": null, "riskrating": null, "objectid": "104044", "globalid": "F13706D0-3DDB-46F0-9B75-C6E38028F531", "tpstructure": "Retired", "plantingspaceglobalid": "BAA0D416-118A-4499-B2AE-21DCB54E4948", "createddate": "2015-03-16T04:00:00", "dbh": "20", "planteddate": null, "updateddate": "2018-12-27T14:56:31", "genusspecies": "Ulmus americana - American elm" }, "geometry": { "type": "Point", "coordinates": [ -73.936041968136365, 40.827716359373831 ] } },
{ "type": "Feature", "properties": { "tpcondition": "Fair", "stumpdiameter": null, "riskratingdate": null, "riskrating": null, "objectid": "104048", "globalid": "4A36B1F9-A23C-42E0-8A1D-6D3DDB230320", "tpstructure": "Retired", "plantingspaceglobalid": "BAA0D416-118A-4499-B2AE-21DCB54E4948", "createddate": "2015-03-16T04:00:00", "dbh": "12", "planteddate": null, "updateddate": "2018-12-27T14:58:23", "genusspecies": "Carpinus betulus - European hornbeam" }, "geometry": { "type": "Point", "coordinates": [ -73.936041968136365, 40.827716359373831 ] } },
{ "type": "Feature", "properties": { "tpcondition": "Good", "stumpdiameter": null, "riskratingdate": "2023-11-21T16:38:32", "riskrating": "6", "objectid": "115249", "globalid": "F77D6FDA-EAC5-4E5F-A32F-12D33997A4B5", "tpstructure": "Full", "plantingspaceglobalid": "1A902816-A632-4CCB-A8DD-3D4210F1C3B7", "createddate": "2015-04-14T15:10:00", "dbh": "24", "planteddate": null, "updateddate": "2023-11-21T16:38:32", "genusspecies": "Gleditsia triacanthos var. inermis - Thornless honeylocust" }, "geometry": { "type": "Point", "coordinates": [ -73.943612408496136, 40.830187427093172 ] } }
]
}
