{
"type": "FeatureCollection",
"name": "morningside",
"crs": { "type": "name", "properties": { "name": "urn:ogc:def:crs:OGC:1.3:CRS84" } },
"features": [
{ "type": "Feature", "properties": { "name": "Morningside Park", "site_id": "morningside", "area_acres": 12.1, "source": "NYC Parks Properties (enfh-gkve)" }, "geometry": { "type": "Polygon", "coordinates": [ [ [ -73.958459479979737, 40.802987489692313 ], [ -73.95835683071482, 40.803215503082811 ], [ -73.958347355787055, 40.803248400283941 ], [ -73.958331676858649, 40.803374441035615 ], [ -73.95833582041513, 40.803612023824172 ], [ -73.958341089477912, 40.803647534195001 ], [ -73.958341403172852, 40.80373897545261 ], [ -73.958350242322766, 40.803834022684789 ], [ -73.958361213791363, 40.804150136809291 ], [ -73.958363223609012, 40.80419190896697 ], [ -73.958367264378012, 40.804266307824598 ], [ -73.958370568262453, 40.804376355355338 ], [ -73.95837254673927, 40.804462577012842 ], [ -73.958386678695064, 40.804665483362683 ], [ -73.958393844380495, 40.804863421841048 ], [ -73.958401320344066, 40.804978336259687 ], [ -73.958403658938806, 40.804998514574571 ], [ -73.958408561226435, 40.805122435748416 ], [ -73.958414516254379, 40.805166106672331 ], [ -73.958415154517652, 40.805197254245968 ], [ -73.958417422450978, 40.805267959505933 ], [ -73.958414057653982, 40.805329188588573 ], [ -73.958404606022043, 40.805392641506678 ], [ -73.958359964848356, 40.805599131303566 ], [ -73.958329229310735, 40.805682617116084 ], [ -73.958264586921004, 40.805809514484594 ], [ -73.958222925529256, 40.805868783708469 ], [ -73.958185430106909, 40.805921729326975 ], [ -73.957447690585241, 40.806929333147643 ], [ -73.955164509309569, 40.810057024079896 ], [ -73.956773813247466, 40.810736585203827 ], [ -73.957154284600691, 40.810207102170239 ], [ -73.957070703540225, 40.810100634938877 ], [ -73.95701467886046, 40.809991007269701 ], [ -73.956991706806534, 40.809921093955786 ], [ -73.956975681126679, 40.809841943220427 ], [ -73.956970447499785, 40.809775821311419 ], [ -73.956977839039055, 40.809673696805419 ], [ -73.956999892877036, 40.809579742581256 ], [ -73.957044017507272, 40.809471782128192 ], [ -73.957295313531688, 40.808987870449627 ], [ -73.957427269823583, 40.808721040463354 ], [ -73.957604196265947, 40.808376538192149 ], [ -73.957758736992787, 40.808067821330326 ], [ -73.95824685938635, 40.807397806097406 ], [ -73.958329905569599, 40.807279097351049 ], [ -73.959675039475542, 40.805431856657954 ], [ -73.960889690236016, 40.801851989433317 ], [ -73.959674135868198, 40.801338688688261 ], [ -73.958459479979737, 40.802987489692313 ] ] ] } }
]
}
