{
"type": "FeatureCollection",
"name": "nyc_forms_trees_clipped",
"crs": { "type": "name", "properties": { "name": "urn:ogc:def:crs:OGC:1.3:CRS84" } },
"features": [
{ "type": "Feature", "properties": { "tpcondition": "Critical", "stumpdiameter": null, "riskratingdate": null, "riskrating": null, "objectid": "89223", "globalid": "8717EC83-F165-495A-A1AA-1064173A681F", "tpstructure": "Retired", "plantingspaceglobalid": "ED1D6BF0-C0E7-49BB-9A1A-85CBF8558ACD", "createddate": "2015-03-04T05:00:00", "dbh": "12", "planteddate": null, "updateddate": "2020-01-08T16:27:00", "genusspecies": "Zelkova serrata - Japanese zelkova" }, "geometry": { "type": "Point", "coordinates": [ -73.965974340891549, 40.795164007783804 ] } },
{ "type": "Feature", "properties": { "tpcondition": "Unknown", "stumpdiameter": null, "riskratingdate": null, "riskrating": null, "objectid": "89625", "globalid": "380AB840-F0E9-4B14-A4D6-A99B8861065E", "tpstructure": "Retired", "plantingspaceglobalid": "8E628B41-0A1D-4948-AAE3-F0B3A2A8AFE8", "createddate": "2015-03-04T05:00:00", "dbh": "6", "planteddate": null, "updateddate": "2016-12-28T12:18:15", "genusspecies": "Tilia cordata - littleleaf linden" }, "geometry": { "type": "Point", "coordinates": [ -73.964744812327339, 40.804278981082376 ] } },
{ "type": "Feature", "properties": { "tpcondition": "Fair", "stumpdiameter": null, "riskratingdate": "2023-04-06T12:08:43", "riskrating": "4", "objectid": "96023", "globalid": "9A846DCA-4124-4D81-AE60-EC6DC3C0905E", "tpstructure": "Full", "plantingspaceglobalid": "AEFED561-2B48-44B5-9362-C727AD875013", "createddate": "2015-03-11T04:00:00", "dbh": "18", "planteddate": null, "updateddate": "2023-04-06T12:08:43", "genusspecies": "Ginkgo biloba - maidenhair tree" }, "geometry": { "type": "Point", "coordinates": [ -73.952855567330246, 40.798479350106135 ] } },
{ "type": "Feature", "properties": { "tpcondition": "Fair", "stumpdiameter": null, "riskratingdate": "2025-08-29T17:39:49", "riskrating": "8", "objectid": "96026", "globalid": "C2FA5D21-1113-4987-B002-1C89886D0C4B", "tpstructure": "Full", "plantingspaceglobalid": "F8672F08-D92E-440F-8AC3-6248F272F82A", "createddate": "2015-03-11T04:00:00", "dbh": "22", "planteddate": null, "updateddate": "2025-08-29T17:39:49", "genusspecies": "Quercus palustris - pin oak" }, "geometry": { "type": "Point", "coordinates": [ -73.955904633111317, 40.814533831892497 ] } },
{ "type": "Feature", "properties": { "tpcondition": "Good", "stumpdiameter": null, "riskratingdate": null, "riskrating": null, "objectid": "102823", "globalid": "613BFDAB-FAD7-421E-9AD1-E2F901307099", "tpstructure": "Retired", "plantingspaceglobalid": "6B12EFC2-4FB3-4833-A8C3-C8D5D52FFD84", "createddate": "2015-03-15T04:00:00", "dbh": "24", "planteddate": null, "updateddate": "2018-07-06T17:09:19", "genusspecies": "Platanus x acerifolia - London planetree" }, "geometry": { "type": "Point", "coordinates": [ -73.954654530056388, 40.808162897986819 ] } },
{ "type": "Feature", "properties": { "tpcondition": "Dead", "stumpdiameter": "5", "riskratingdate": null, "riskrating": null, "objectid": "107629", "globalid": "A1E1BE63-AE13-4F38-BE2D-FC25159F6D24", "tpstructure": "Retired", "plantingspaceglobalid": "9429D201-1AFF-48DE-BD09-1FC2954D37A4", "createddate": "2015-03-18T04:00:00", "dbh": "4", "planteddate": null, "updateddate": "2022-05-09T13:12:00", "genusspecies": "Koelreuteria paniculata - goldenrain tree" }, "geometry": { "type": "Point", "coordinates": [ -73.957959861218384, 40.803031427809543 ] } },
{ "type": "Feature", "properties": { "tpcondition": "Good", "stumpdiameter": null, "riskratingdate": "2023-11-07T14:30:24", "riskrating": "6", "objectid": "112023", "globalid": "94DA1CAC-5977-44BA-8D74-26D74C888977", "tpstructure": "Full", "plantingspaceglobalid": "F3ECD5C6-30D8-4C99-A578-80B07AE1B97D", "createddate": "2015-03-22T04:00:00", "dbh": "9", "planteddate": null, "updateddate": "2023-11-07T14:30:24", "genusspecies": "Gleditsia triacanthos var. inermis - Thornless honeylocust" }, "geometry": { "type": "Point", "coordinates": [ -73.966281257312588, 40.807375439176454 ] } },
{ "type": "Feature", "properties": { "tpcondition": "Good", "stumpdiameter": null, "riskratingdate": null, "riskrating": null, "objectid": "112026", "globalid": "75525A53-4126-4BDA-8F68-4F9EEF8B5FEF", "tpstructure": "Retired", "plantingspaceglobalid": "E1AA30C4-F3F0-46F2-BD68-BD3266AE26D1", "createddate": "2015-03-22T04:00:00", "dbh": "2", "planteddate": null, "updateddate": "2024-02-05T14:12:01", "genusspecies": "Carpinus betulus - European hornbeam" }, "geometry": { "type": "Point", "coordinates": [ -73.951142363650163, 40.808398718111967 ] } },
{ "type": "Feature", "properties": { "tpcondition": "Good", "stumpdiameter": null, "riskratingdate": null, "riskrating": null, "objectid": "113654", "globalid": "8ABE0E96-97DE-489D-91C3-70251300010E", "tpstructure": "Full", "plantingspaceglobalid": "ABE73860-B612-4002-A410-2B998E6EB70F", "createddate": "2015-03-23T04:00:00", "dbh": "4", "planteddate": null, "updateddate": "2016-10-06T14:08:29", "genusspecies": "Quercus palustris - pin oak" }, "geometry": { "type": "Point", "coordinates": [ -73.962112350898892, 40.797908723402131 ] } },
{ "type": "Feature", "properties": { "tpcondition": "Good", "stumpdiameter": null, "riskratingdate": "2025-06-04T15:27:27", "riskrating": "7", "objectid": "114025", "globalid": "7A38E47F-48DC-4A39-AF81-7350EA7E435F", "tpstructure": "Full", "plantingspaceglobalid": "F0042043-0E79-4EF4-810E-19742C28F351", "createddate": "2015-03-23T04:00:00", "dbh": "6", "planteddate": null, "updateddate": "2025-06-04T15:27:27", "genusspecies": "Fraxinus pennsylvanica - Green ash" }, "geometry": { "type": "Point", "coordinates": [ -73.966938211876368, 40.80769965267784 ] } },
{ "type": "Feature", "properties": { "tpcondition": "Good", "stumpdiameter": null, "riskratingdate": null, "riskrating": null, "objectid": "114855", "globalid": "58E8B65A-C134-49E9-B275-21E1CD05CED7", "tpstructure": "Retired", "plantingspaceglobalid": "57332F4F-65C5-45A2-8F2B-D53895C601E4", "createddate": "2015-03-24T04:00:00", "dbh": "4", "planteddate": null, "updateddate": "2017-08-10T14:17:13", "genusspecies": "Quercus palustris - pin oak" }, "geometry": { "type": "Point", "coordinates": [ -73.964302361208453, 40.79901888602982 ] } },
{ "type": "Feature", "properties": { "tpcondition": "Good", "stumpdiameter": null, "riskratingdate": "2021-09-14T17:45:59", "riskrating": "5", "objectid": "114856", "globalid": "12E73D3C-84D7-4C52-A0CE-131E783EE4C6", "tpstructure": "Full", "plantingspaceglobalid": "40247CC4-9B91-47B0-BB50-6CB428EF2DBB", "createddate": "2015-03-24T04:00:00", "dbh": "8", "planteddate": null, "updateddate": "2021-09-14T17:45:59", "genusspecies": "Quercus palustris - pin oak" }, "geometry": { "type": "Point", "coordinates": [ -73.964407375626706, 40.799051083280006 ] } },
{ "type": "Feature", "properties": { "tpcondition": "Good", "stumpdiameter": null, "riskratingdate": null, "riskrating": null, "objectid": "114857", "globalid": "6A25CE4C-C6F2-4534-9D22-9B034CD9261F", "tpstructure": "Retired", "plantingspaceglobalid": "43789CB9-1A12-4FBA-AFC6-1B9406CCE39B", "createddate": "2015-03-24T04:00:00", "dbh": "7", "planteddate": null, "updateddate": "2017-08-10T14:17:33", "genusspecies": "Quercus palustris - pin oak" }, "geometry": { "type": "Point", "coordinates": [ -73.964222436913801, 40.798974187949696 ] } },
{ "type": "Feature", "properties": { "tpcondition": "Good", "stumpdiameter": null, "riskratingdate": "2021-09-14T16:47:42", "riskrating": "4", "objectid": "115248", "globalid": "28A6BA57-8C02-4FB2-88BD-0E5B261DAC64", "tpstructure": "Full", "plantingspaceglobalid": "BC333028-1F71-4268-A895-614048F24075", "createddate": "2015-03-24T04:00:00", "dbh": "6", "planteddate": null, "updateddate": "2021-09-14T16:47:42", "genusspecies": "Quercus rubra - northern red oak" }, "geometry": { "type": "Point", "coordinates": [ -73.964222074179801, 40.79897007646386 ] } },
{ "type": "Feature", "properties": { "tpcondition": "Good", "stumpdiameter": null, "riskratingdate": "2021-09-14T16:48:38", "riskrating": "3", "objectid": "116052", "globalid": "EC9AEF3F-F9C6-41F6-A08E-D481C2363F85", "tpstructure": "Full", "plantingspaceglobalid": "BE34D6CA-B8A6-41CB-85C2-E14F754ED09A", "createddate": "2015-03-24T04:00:00", "dbh": "7", "planteddate": null, "updateddate": "2021-09-14T16:48:38", "genusspecies": "Quercus palustris - pin oak" }, "geometry": { "type": "Point", "coordinates": [ -73.964304719152963, 40.79900816516782 ] } },
{ "type": "Feature", "properties": { "tpcondition": "Good", "stumpdiameter": null, "riskratingdate": "2023-06-13T13:30:04", "riskrating": "5", "objectid": "116427", "globalid": "5C4064E7-6EE9-4794-B2BB-48C72717B0AD", "tpstructure": "Full", "plantingspaceglobalid": "6F27A313-DA61-4C01-8CD5-12F7E60B64D5", "createddate": "2015-03-25T04:00:00", "dbh": "8", "planteddate": null, "updateddate": "2023-06-13T13:30:04", "genusspecies": "Platanus x acerifolia - London planetree" }, "geometry": { "type": "Point", "coordinates": [ -73.953277149311248, 40.80220287742042 ] } },
{ "type": "Feature", "properties": { "tpcondition": "Good", "stumpdiameter": null, "riskratingdate": "2023-06-13T11:36:27", "riskrating": "6", "objectid": "116831", "globalid": "76825154-8EC6-4B0D-8EFC-5A1B0367EC5E", "tpstructure": "Full", "plantingspaceglobalid": "601CE5ED-0B64-4189-B0F1-18A396D03E4D", "createddate": "2015-03-25T04:00:00", "dbh": "23", "planteddate": null, "updateddate": "2023-06-13T11:36:27", "genusspecies": "Platanus x acerifolia - London planetree" }, "geometry": { "type": "Point", "coordinates": [ -73.955041506011625, 40.799800040015811 ] } }
]
}
