{
  "type": "FeatureCollection",
  "columns": {
    "count": "Long<0, 4294967295>",
    "label": "Byte<0, 1>",
    "system:index": "String"
  },
  "features": [
    {
      "type": "Feature",
      "geometry": {
        "geodesic": false,
        "type": "Polygon",
        "coordinates": [
          [
            [
              -73.87699980834739,
              40.90182202194482
            ],
            [
              -73.87682014529057,
              40.90182202194482
            ],
            [
              -73.87682014529057,
              40.90191185347323
            ],
            [
              -73.87699980834739,
              40.90191185347323
            ],
            [
              -73.87699980834739,
              40.90182202194482
            ]
          ]
        ]
      },
      "id": "-822394+455317",
      "properties": {
        "count": 2,
        "label": 1
      }
    },
    {
      "type": "Feature",
      "geometry": {
        "geodesic": false,
        "type": "Polygon",
        "coordinates": [
          [
            [
              -73.8831981838078,
              40.8859218414159
            ],
            [
              -73.8831981838078,
              40.885742178359074
            ],
            [
              -73.88328801533622,
              40.885742178359074
            ],
            [
              -73.88328801533622,
              40.88565234683067
            ],
            [
              -73.8831981838078,
              40.88565234683067
            ],
            [
              -73.8831981838078,
              40.885562515302254
            ],
            [
              -73.883018520751,
              40.885562515302254
            ],
            [
              -73.883018520751,
              40.88547268377384
            ],
            [
              -73.88292868922258,
              40.88547268377384
            ],
            [
              -73.88292868922258,
              40.885742178359074
            ],
            [
              -73.883018520751,
              40.885742178359074
            ],
            [
              -73.883018520751,
              40.8859218414159
            ],
            [
              -73.8831981838078,
              40.8859218414159
            ]
          ]
        ]
      },
      "id": "-822463+455139",
      "properties": {
        "count": 12,
        "label": 1
      }
    },
    {
      "type": "Feature",
      "geometry": {
        "geodesic": false,
        "type": "Polygon",
        "coordinates": [
          [
            [
              -73.88885757009777,
              40.891581227705856
            ],
            [
              -73.88876773856936,
              40.891581227705856
            ],
            [
              -73.88876773856936,
              40.891760890762676
            ],
            [
              -73.88885757009777,
              40.891760890762676
            ],
            [
              -73.88885757009777,
              40.891581227705856
            ]
          ]
        ]
      },
      "id": "-822527+455204",
      "properties": {
        "count": 2,
        "label": 1
      }
    },
    {
      "type": "Feature",
      "geometry": {
        "geodesic": false,
        "type": "Polygon",
        "coordinates": [
          [
            [
              -73.889127064683,
              40.89086257547856
            ],
            [
              -73.889127064683,
              40.890772743950144
            ],
            [
              -73.88921689621141,
              40.890772743950144
            ],
            [
              -73.88921689621141,
              40.89068291242173
            ],
            [
              -73.889127064683,
              40.89068291242173
            ],
            [
              -73.889127064683,
              40.890593080893325
            ],
            [
              -73.88921689621141,
              40.890593080893325
            ],
            [
              -73.88921689621141,
              40.89050324936491
            ],
            [
              -73.88930672773982,
              40.89050324936491
            ],
            [
              -73.88930672773982,
              40.88996426019444
            ],
            [
              -73.889127064683,
              40.88996426019444
            ],
            [
              -73.889127064683,
              40.89023375477967
            ],
            [
              -73.88903723315458,
              40.89023375477967
            ],
            [
              -73.88903723315458,
              40.89086257547856
            ],
            [
              -73.889127064683,
              40.89086257547856
            ]
          ]
        ]
      },
      "id": "-822530+455194",
      "properties": {
        "count": 21,
        "label": 1
      }
    },
    {
      "type": "Feature",
      "geometry": {
        "geodesic": false,
        "type": "Polygon",
        "coordinates": [
          [
            [
              -73.88939655926823,
              40.88978459713761
            ],
            [
              -73.88930672773982,
              40.88978459713761
            ],
            [
              -73.88930672773982,
              40.889874428666026
            ],
            [
              -73.88939655926823,
              40.889874428666026
            ],
            [
              -73.88939655926823,
              40.88978459713761
            ]
          ]
        ]
      },
      "id": "-822533+455183",
      "properties": {
        "count": 1,
        "label": 1
      }
    },
    {
      "type": "Feature",
      "geometry": {
        "geodesic": false,
        "type": "Polygon",
        "coordinates": [
          [
            [
              -73.88957622232506,
              40.891760890762676
            ],
            [
              -73.88957622232506,
              40.89149139617744
            ],
            [
              -73.88966605385347,
              40.89149139617744
            ],
            [
              -73.88966605385347,
              40.891581227705856
            ],
            [
              -73.88975588538189,
              40.891581227705856
            ],
            [
              -73.88975588538189,
              40.89131173312062
            ],
            [
              -73.8898457169103,
              40.89131173312062
            ],
            [
              -73.8898457169103,
              40.8904134178365
            ],
            [
              -73.88993554843871,
              40.8904134178365
            ],
            [
              -73.88993554843871,
              40.890323586308085
            ],
            [
              -73.8898457169103,
              40.890323586308085
            ],
            [
              -73.8898457169103,
              40.8904134178365
            ],
            [
              -73.88975588538189,
              40.8904134178365
            ],
            [
              -73.88975588538189,
              40.89068291242173
            ],
            [
              -73.88957622232506,
              40.89068291242173
            ],
            [
              -73.88957622232506,
              40.890772743950144
            ],
            [
              -73.88948639079665,
              40.890772743950144
            ],
            [
              -73.88948639079665,
              40.89095240700697
            ],
            [
              -73.88939655926823,
              40.89095240700697
            ],
            [
              -73.88939655926823,
              40.8911320700638
            ],
            [
              -73.88921689621141,
              40.8911320700638
            ],
            [
              -73.88921689621141,
              40.89140156464903
            ],
            [
              -73.88939655926823,
              40.89140156464903
            ],
            [
              -73.88939655926823,
              40.891581227705856
            ],
            [
              -73.88948639079665,
              40.891581227705856
            ],
            [
              -73.88948639079665,
              40.891760890762676
            ],
            [
              -73.88957622232506,
              40.891760890762676
            ]
          ]
        ]
      },
      "id": "-822535+455204",
      "properties": {
        "count": 54,
        "label": 1
      }
    },
    {
      "type": "Feature",
      "geometry": {
        "geodesic": false,
        "type": "Polygon",
        "coordinates": [
          [
            [
              -73.88957622232506,
              40.89238971146156
            ],
            [
              -73.88957622232506,
              40.89185072229109
            ],
            [
              -73.88939655926823,
              40.89185072229109
            ],
            [
              -73.88939655926823,
              40.892210048404735
            ],
            [
              -73.88948639079665,
              40.892210048404735
            ],
            [
              -73.88948639079665,
              40.89238971146156
            ],
            [
              -73.88957622232506,
              40.89238971146156
            ]
          ]
        ]
      },
      "id": "-822535+455211",
      "properties": {
        "count": 10,
        "label": 1
      }
    },
    {
      "type": "Feature",
      "geometry": {
        "geodesic": false,
        "type": "Polygon",
        "coordinates": [
          [
            [
              -73.88993554843871,
              40.8941863420298
            ],
            [
              -73.88993554843871,
              40.89409651050139
            ],
            [
              -73.89002537996711,
              40.89409651050139
            ],
            [
              -73.89002537996711,
              40.89400667897298
            ],
            [
              -73.88975588538189,
              40.89400667897298
            ],
            [
              -73.88975588538189,
              40.893916847444565
            ],
            [
              -73.88957622232506,
              40.893916847444565
            ],
            [
              -73.88957622232506,
              40.89409651050139
            ],
            [
              -73.88966605385347,
              40.89409651050139
            ],
            [
              -73.88966605385347,
              40.8941863420298
            ],
            [
              -73.88993554843871,
              40.8941863420298
            ]
          ]
        ]
      },
      "id": "-822537+455231",
      "properties": {
        "count": 10,
        "label": 1
      }
    },
    {
      "type": "Feature",
      "geometry": {
        "geodesic": false,
        "type": "Polygon",
        "coordinates": [
          [
            [
              -73.89020504302394,
              40.89023375477967
            ],
            [
              -73.89011521149553,
              40.89023375477967
            ],
            [
              -73.89011521149553,
              40.890323586308085
            ],
            [
              -73.89020504302394,
              40.890323586308085
            ],
            [
              -73.89020504302394,
              40.89023375477967
            ]
          ]
        ]
      },
      "id": "-822542+455188",
      "properties": {
        "count": 1,
        "label": 1
      }
    },
    {
      "type": "Feature",
      "geometry": {
        "geodesic": false,
        "type": "Polygon",
        "coordinates": [
          [
            [
              -73.89200167359218,
              40.88978459713761
            ],
            [
              -73.89200167359218,
              40.8896947656092
            ],
            [
              -73.89227116817742,
              40.8896947656092
            ],
            [
              -73.89227116817742,
              40.88960493408079
            ],
            [
              -73.89263049429107,
              40.88960493408079
            ],
            [
              -73.89263049429107,
              40.88951510255238
            ],
            [
              -73.89272032581948,
              40.88951510255238
            ],
            [
              -73.89272032581948,
              40.88942527102397
            ],
            [
              -73.89236099970583,
              40.88942527102397
            ],
            [
              -73.89236099970583,
              40.88951510255238
            ],
            [
              -73.89209150512059,
              40.88951510255238
            ],
            [
              -73.89209150512059,
              40.88960493408079
            ],
            [
              -73.89191184206378,
              40.88960493408079
            ],
            [
              -73.89191184206378,
              40.88978459713761
            ],
            [
              -73.89200167359218,
              40.88978459713761
            ]
          ]
        ]
      },
      "id": "-822562+455182",
      "properties": {
        "count": 15,
        "label": 1
      }
    }
  ]
}