{
"type": "FeatureCollection",
"name": "nyc_forms_trees_clipped",
"crs": { "type": "name", "properties": { "name": "urn:ogc:def:crs:OGC:1.3:CRS84" } },
"features": [
{ "type": "Feature", "properties": { "tpcondition": "Dead", "stumpdiameter": null, "riskratingdate": null, "riskrating": null, "objectid": "116054", "globalid": "23C1BEC0-8124-43F2-B1CC-0BDCE724AF15", "tpstructure": "Retired", "plantingspaceglobalid": "955D9827-E5D9-43AC-B33F-D9776C0D78A2", "createddate": "2015-03-24T04:00:00", "dbh": "3", "planteddate": null, "updateddate": "2017-07-13T10:26:17", "genusspecies": "Acer - maple" }, "geometry": { "type": "Point", "coordinates": [ -73.872861489930614, 40.897015425581053 ] } }
]
}
