{
"type": "FeatureCollection",
"name": "west_harlem",
"crs": { "type": "name", "properties": { "name": "urn:ogc:def:crs:OGC:1.3:CRS84" } },
"features": [
{ "type": "Feature", "properties": { "name": "West Harlem Forest Restoration", "extent": "W143rd to W153rd Street", "area_acres": 46.29, "area_hectares": 3.035, "partner": "Riverside Park Conservancy / NAC / NYC Parks", "funder": "Treebed LLC", "grant_usd": 3250000, "duration_years": 3, "start_year": 2026, "note": "Boundary aligned to NYC Parks Riverside footprint within the RPC restoration corridor.", "site_id": "west_harlem", "grant_acres": 7.5, "source": "RPC restoration sketch ∩ NYC Parks Riverside (M072)" }, "geometry": { "type": "Polygon", "coordinates": [ [ [ -73.95445454487421, 40.825277821983846 ], [ -73.9539791241789, 40.825772201597225 ], [ -73.952945036103955, 40.826917821402901 ], [ -73.952599007194678, 40.827296917891672 ], [ -73.952518602591994, 40.827387424212326 ], [ -73.952123049557684, 40.82782115980428 ], [ -73.951934864390722, 40.82803191176346 ], [ -73.951808209143934, 40.82818013444053 ], [ -73.951596968527667, 40.828446572723877 ], [ -73.951469402638978, 40.828623803186211 ], [ -73.951440386397465, 40.82866736535599 ], [ -73.95048, 40.82948 ], [ -73.950455918026691, 40.829498524594847 ], [ -73.950458711030649, 40.829490842816661 ], [ -73.950518325749684, 40.829368528963215 ], [ -73.950635411342915, 40.82918112939938 ], [ -73.950861046850207, 40.828861474380801 ], [ -73.951112013887695, 40.828508610381135 ], [ -73.951260888641258, 40.828326559962825 ], [ -73.951365570737138, 40.828222525828437 ], [ -73.951450839332011, 40.828134059291123 ], [ -73.951520727134678, 40.828050429087838 ], [ -73.951603770028015, 40.827931139349616 ], [ -73.95167660618641, 40.827840364856939 ], [ -73.951783147434398, 40.827730683208593 ], [ -73.951908102154647, 40.82761490558353 ], [ -73.951944303539676, 40.827603150301456 ], [ -73.952178021383247, 40.827364990818374 ], [ -73.952189011575996, 40.827365559985935 ], [ -73.952198196686268, 40.82736556379367 ], [ -73.952207383071325, 40.827363792724988 ], [ -73.952214983234569, 40.827360436126568 ], [ -73.952221098354286, 40.827356570132586 ], [ -73.952226184959812, 40.827352029241212 ], [ -73.952355586843836, 40.82718225656663 ], [ -73.952365443079941, 40.827168774820542 ], [ -73.952368488506224, 40.827162244785917 ], [ -73.952370390794215, 40.827154529227265 ], [ -73.952370716907112, 40.827146099825299 ], [ -73.952369079423264, 40.827138292755066 ], [ -73.952365630766522, 40.827131811366279 ], [ -73.952357866989232, 40.827118683439757 ], [ -73.952783688720515, 40.826559820247603 ], [ -73.952657647098107, 40.826501999990406 ], [ -73.953062954970761, 40.825970284431712 ], [ -73.953152208933034, 40.825864598952307 ], [ -73.953262447151403, 40.825761102908935 ], [ -73.953389441931591, 40.825661898991008 ], [ -73.95348600741977, 40.825602831255729 ], [ -73.953613377387583, 40.825540986999684 ], [ -73.953743833939839, 40.825484382023305 ], [ -73.95386377206458, 40.825444487689794 ], [ -73.953978024595031, 40.825420087590608 ], [ -73.954081733690245, 40.825407695791256 ], [ -73.954163182914215, 40.825408366646407 ], [ -73.954229478932973, 40.825413682490186 ], [ -73.954419555797401, 40.825204270573465 ], [ -73.954508630462783, 40.825219761819618 ], [ -73.95445454487421, 40.825277821983846 ] ] ] } }
]
}
