{
"type": "FeatureCollection",
"name": "trees_2021",
"crs": { "type": "name", "properties": { "name": "urn:ogc:def:crs:OGC:1.3:CRS84" } },
"features": [
{ "type": "Feature", "properties": { "Height": 87.232749938964801, "Radius": 12.964089628857149, "height_m": 26.59, "crown_diameter_m": 7.9, "site_id": 0, "s2_ndvi_july_max": 0.93285858631134033, "health_class": "healthy", "crown_diameter": 7.9, "health_method": "Sentinel-2 SR Harmonized · July 2019–2024 max NDVI · reduceRegions" }, "geometry": { "type": "Point", "coordinates": [ -73.951365559759068, 40.828500295256596 ] } },
{ "type": "Feature", "properties": { "Height": 86.886497497558594, "Radius": 25.848258183091886, "height_m": 26.48, "crown_diameter_m": 15.76, "site_id": 1, "s2_ndvi_july_max": 0.95108187198638916, "health_class": "healthy", "crown_diameter": 15.76, "health_method": "Sentinel-2 SR Harmonized · July 2019–2024 max NDVI · reduceRegions" }, "geometry": { "type": "Point", "coordinates": [ -73.951178633409867, 40.828551924503593 ] } },
{ "type": "Feature", "properties": { "Height": 71.429496765136705, "Radius": 15.159806655254442, "height_m": 21.77, "crown_diameter_m": 9.24, "site_id": 2, "s2_ndvi_july_max": 0.91399997472763062, "health_class": "healthy", "crown_diameter": 9.24, "health_method": "Sentinel-2 SR Harmonized · July 2019–2024 max NDVI · reduceRegions" }, "geometry": { "type": "Point", "coordinates": [ -73.951471109355666, 40.828515459935076 ] } },
{ "type": "Feature", "properties": { "Height": 77.242500305175795, "Radius": 21.682797372420811, "height_m": 23.54, "crown_diameter_m": 13.22, "site_id": 3, "s2_ndvi_july_max": 0.94625174999237061, "health_class": "healthy", "crown_diameter": 13.22, "health_method": "Sentinel-2 SR Harmonized · July 2019–2024 max NDVI · reduceRegions" }, "geometry": { "type": "Point", "coordinates": [ -73.951088431146914, 40.828653137951036 ] } },
{ "type": "Feature", "properties": { "Height": 88.1094970703125, "Radius": 36.39678789158998, "height_m": 26.86, "crown_diameter_m": 22.19, "site_id": 4, "s2_ndvi_july_max": 0.94693875312805176, "health_class": "healthy", "crown_diameter": 22.19, "health_method": "Sentinel-2 SR Harmonized · July 2019–2024 max NDVI · reduceRegions" }, "geometry": { "type": "Point", "coordinates": [ -73.951334102381423, 40.828631696640237 ] } },
{ "type": "Feature", "properties": { "Height": 91.629753112792997, "Radius": 20.64502210219441, "height_m": 27.93, "crown_diameter_m": 12.59, "site_id": 5, "s2_ndvi_july_max": 0.94899260997772217, "health_class": "healthy", "crown_diameter": 12.59, "health_method": "Sentinel-2 SR Harmonized · July 2019–2024 max NDVI · reduceRegions" }, "geometry": { "type": "Point", "coordinates": [ -73.951196089987889, 40.828707023263348 ] } },
{ "type": "Feature", "properties": { "Height": 94.199752807617202, "Radius": 29.800748018343032, "height_m": 28.71, "crown_diameter_m": 18.17, "site_id": 6, "s2_ndvi_july_max": 0.94899260997772217, "health_class": "healthy", "crown_diameter": 18.17, "health_method": "Sentinel-2 SR Harmonized · July 2019–2024 max NDVI · reduceRegions" }, "geometry": { "type": "Point", "coordinates": [ -73.951114646349168, 40.828780426843544 ] } },
{ "type": "Feature", "properties": { "Height": 87.644248962402301, "Radius": 27.408234736913396, "height_m": 26.71, "crown_diameter_m": 16.71, "site_id": 7, "s2_ndvi_july_max": 0.93086779117584229, "health_class": "healthy", "crown_diameter": 16.71, "health_method": "Sentinel-2 SR Harmonized · July 2019–2024 max NDVI · reduceRegions" }, "geometry": { "type": "Point", "coordinates": [ -73.951002210665436, 40.828868735703573 ] } },
{ "type": "Feature", "properties": { "Height": 83.498748779296903, "Radius": 30.979094674378864, "height_m": 25.45, "crown_diameter_m": 18.88, "site_id": 8, "s2_ndvi_july_max": 0.93279695510864258, "health_class": "healthy", "crown_diameter": 18.88, "health_method": "Sentinel-2 SR Harmonized · July 2019–2024 max NDVI · reduceRegions" }, "geometry": { "type": "Point", "coordinates": [ -73.950825250739854, 40.828918791842376 ] } },
{ "type": "Feature", "properties": { "Height": 77.738746643066406, "Radius": 28.196782054262208, "height_m": 23.69, "crown_diameter_m": 17.19, "site_id": 9, "s2_ndvi_july_max": 0.93932038545608521, "health_class": "healthy", "crown_diameter": 17.19, "health_method": "Sentinel-2 SR Harmonized · July 2019–2024 max NDVI · reduceRegions" }, "geometry": { "type": "Point", "coordinates": [ -73.950815401469583, 40.829061605256456 ] } },
{ "type": "Feature", "properties": { "Height": 81.660499572753906, "Radius": 46.677951657372965, "height_m": 24.89, "crown_diameter_m": 28.45, "site_id": 10, "s2_ndvi_july_max": 0.93070310354232788, "health_class": "healthy", "crown_diameter": 28.45, "health_method": "Sentinel-2 SR Harmonized · July 2019–2024 max NDVI · reduceRegions" }, "geometry": { "type": "Point", "coordinates": [ -73.950669902720691, 40.829214670488646 ] } },
{ "type": "Feature", "properties": { "Height": 78.487503051757798, "Radius": 38.054576954594509, "height_m": 23.92, "crown_diameter_m": 23.2, "site_id": 11, "s2_ndvi_july_max": 0.93062043190002441, "health_class": "healthy", "crown_diameter": 23.2, "health_method": "Sentinel-2 SR Harmonized · July 2019–2024 max NDVI · reduceRegions" }, "geometry": { "type": "Point", "coordinates": [ -73.950489862691413, 40.829456114198109 ] } },
{ "type": "Feature", "properties": { "Height": 41.477249145507798, "Radius": 12.561931621992464, "height_m": 12.64, "crown_diameter_m": 7.66, "site_id": 12, "s2_ndvi_july_max": 0.79714822769165039, "health_class": "healthy", "crown_diameter": 7.66, "health_method": "Sentinel-2 SR Harmonized · July 2019–2024 max NDVI · reduceRegions" }, "geometry": { "type": "Point", "coordinates": [ -73.95390624506544, 40.825501538461701 ] } },
{ "type": "Feature", "properties": { "Height": 51.827999114990199, "Radius": 20.670061556032991, "height_m": 15.8, "crown_diameter_m": 12.6, "site_id": 13, "s2_ndvi_july_max": 0.88003116846084595, "health_class": "healthy", "crown_diameter": 12.6, "health_method": "Sentinel-2 SR Harmonized · July 2019–2024 max NDVI · reduceRegions" }, "geometry": { "type": "Point", "coordinates": [ -73.953538700733162, 40.825589186577758 ] } },
{ "type": "Feature", "properties": { "Height": 53.352249145507798, "Radius": 25.338331445316321, "height_m": 16.26, "crown_diameter_m": 15.45, "site_id": 14, "s2_ndvi_july_max": 0.83212995529174805, "health_class": "healthy", "crown_diameter": 15.45, "health_method": "Sentinel-2 SR Harmonized · July 2019–2024 max NDVI · reduceRegions" }, "geometry": { "type": "Point", "coordinates": [ -73.953726893941663, 40.825612150142796 ] } },
{ "type": "Feature", "properties": { "Height": 51.310501098632798, "Radius": 24.566553364370574, "height_m": 15.64, "crown_diameter_m": 14.98, "site_id": 15, "s2_ndvi_july_max": 0.82112008333206177, "health_class": "healthy", "crown_diameter": 14.98, "health_method": "Sentinel-2 SR Harmonized · July 2019–2024 max NDVI · reduceRegions" }, "geometry": { "type": "Point", "coordinates": [ -73.953984411354, 40.825583560699791 ] } },
{ "type": "Feature", "properties": { "Height": 57.157249450683601, "Radius": 27.495199211616978, "height_m": 17.42, "crown_diameter_m": 16.76, "site_id": 16, "s2_ndvi_july_max": 0.89896303415298462, "health_class": "healthy", "crown_diameter": 16.76, "health_method": "Sentinel-2 SR Harmonized · July 2019–2024 max NDVI · reduceRegions" }, "geometry": { "type": "Point", "coordinates": [ -73.953645247994245, 40.825704631561543 ] } },
{ "type": "Feature", "properties": { "Height": 53.901748657226598, "Radius": 27.89887541086404, "height_m": 16.43, "crown_diameter_m": 17.01, "site_id": 17, "s2_ndvi_july_max": 0.82429498434066772, "health_class": "healthy", "crown_diameter": 17.01, "health_method": "Sentinel-2 SR Harmonized · July 2019–2024 max NDVI · reduceRegions" }, "geometry": { "type": "Point", "coordinates": [ -73.953911274256555, 40.825685632377599 ] } },
{ "type": "Feature", "properties": { "Height": 70.587501525878906, "Radius": 35.282153950591784, "height_m": 21.52, "crown_diameter_m": 21.51, "site_id": 18, "s2_ndvi_july_max": 0.92207789421081543, "health_class": "healthy", "crown_diameter": 21.51, "health_method": "Sentinel-2 SR Harmonized · July 2019–2024 max NDVI · reduceRegions" }, "geometry": { "type": "Point", "coordinates": [ -73.953449177381998, 40.825761085687994 ] } },
{ "type": "Feature", "properties": { "Height": 62.688999176025398, "Radius": 24.386111720872332, "height_m": 19.11, "crown_diameter_m": 14.87, "site_id": 19, "s2_ndvi_july_max": 0.86962026357650757, "health_class": "healthy", "crown_diameter": 14.87, "health_method": "Sentinel-2 SR Harmonized · July 2019–2024 max NDVI · reduceRegions" }, "geometry": { "type": "Point", "coordinates": [ -73.953861877567277, 40.825781511795768 ] } },
{ "type": "Feature", "properties": { "Height": 65.056747436523395, "Radius": 28.39785373310162, "height_m": 19.83, "crown_diameter_m": 17.31, "site_id": 20, "s2_ndvi_july_max": 0.74834436178207397, "health_class": "healthy", "crown_diameter": 17.31, "health_method": "Sentinel-2 SR Harmonized · July 2019–2024 max NDVI · reduceRegions" }, "geometry": { "type": "Point", "coordinates": [ -73.953281715429071, 40.82577641103623 ] } },
{ "type": "Feature", "properties": { "Height": 53.786750793457003, "Radius": 17.801053106374454, "height_m": 16.39, "crown_diameter_m": 10.85, "site_id": 21, "s2_ndvi_july_max": 0.79812836647033691, "health_class": "healthy", "crown_diameter": 10.85, "health_method": "Sentinel-2 SR Harmonized · July 2019–2024 max NDVI · reduceRegions" }, "geometry": { "type": "Point", "coordinates": [ -73.95354239582889, 40.825837013440371 ] } },
{ "type": "Feature", "properties": { "Height": 49.888999938964801, "Radius": 31.059904821997179, "height_m": 15.21, "crown_diameter_m": 18.93, "site_id": 22, "s2_ndvi_july_max": 0.76876711845397949, "health_class": "healthy", "crown_diameter": 18.93, "health_method": "Sentinel-2 SR Harmonized · July 2019–2024 max NDVI · reduceRegions" }, "geometry": { "type": "Point", "coordinates": [ -73.953733624258788, 40.825887609019944 ] } },
{ "type": "Feature", "properties": { "Height": 67.563499450683594, "Radius": 21.748758375344394, "height_m": 20.59, "crown_diameter_m": 13.26, "site_id": 23, "s2_ndvi_july_max": 0.85953348875045776, "health_class": "healthy", "crown_diameter": 13.26, "health_method": "Sentinel-2 SR Harmonized · July 2019–2024 max NDVI · reduceRegions" }, "geometry": { "type": "Point", "coordinates": [ -73.953514864263312, 40.825937945189658 ] } },
{ "type": "Feature", "properties": { "Height": 67.657501220703097, "Radius": 21.310763245663523, "height_m": 20.62, "crown_diameter_m": 12.99, "site_id": 24, "s2_ndvi_july_max": 0.85022556781768799, "health_class": "healthy", "crown_diameter": 12.99, "health_method": "Sentinel-2 SR Harmonized · July 2019–2024 max NDVI · reduceRegions" }, "geometry": { "type": "Point", "coordinates": [ -73.95359495754505, 40.825980019781412 ] } },
{ "type": "Feature", "properties": { "Height": 78.994499206542997, "Radius": 39.600924632588956, "height_m": 24.08, "crown_diameter_m": 24.14, "site_id": 25, "s2_ndvi_july_max": 0.8870360255241394, "health_class": "healthy", "crown_diameter": 24.14, "health_method": "Sentinel-2 SR Harmonized · July 2019–2024 max NDVI · reduceRegions" }, "geometry": { "type": "Point", "coordinates": [ -73.953094388404452, 40.825953669572513 ] } },
{ "type": "Feature", "properties": { "Height": 63.8672485351563, "Radius": 16.158393612678655, "height_m": 19.47, "crown_diameter_m": 9.85, "site_id": 26, "s2_ndvi_july_max": 0.89746510982513428, "health_class": "healthy", "crown_diameter": 9.85, "health_method": "Sentinel-2 SR Harmonized · July 2019–2024 max NDVI · reduceRegions" }, "geometry": { "type": "Point", "coordinates": [ -73.95353183731261, 40.826053827789309 ] } },
{ "type": "Feature", "properties": { "Height": 79.422248840332003, "Radius": 18.212053739309848, "height_m": 24.21, "crown_diameter_m": 11.1, "site_id": 27, "s2_ndvi_july_max": 0.91946309804916382, "health_class": "healthy", "crown_diameter": 11.1, "health_method": "Sentinel-2 SR Harmonized · July 2019–2024 max NDVI · reduceRegions" }, "geometry": { "type": "Point", "coordinates": [ -73.95318646308283, 40.826088098734196 ] } },
{ "type": "Feature", "properties": { "Height": 91.568000793457003, "Radius": 35.130713146847768, "height_m": 27.91, "crown_diameter_m": 21.42, "site_id": 28, "s2_ndvi_july_max": 0.89770805835723877, "health_class": "healthy", "crown_diameter": 21.42, "health_method": "Sentinel-2 SR Harmonized · July 2019–2024 max NDVI · reduceRegions" }, "geometry": { "type": "Point", "coordinates": [ -73.953351497095511, 40.826052113375397 ] } },
{ "type": "Feature", "properties": { "Height": 88.461746215820298, "Radius": 11.740024732409271, "height_m": 26.96, "crown_diameter_m": 7.16, "site_id": 29, "s2_ndvi_july_max": 0.93519729375839233, "health_class": "healthy", "crown_diameter": 7.16, "health_method": "Sentinel-2 SR Harmonized · July 2019–2024 max NDVI · reduceRegions" }, "geometry": { "type": "Point", "coordinates": [ -73.953316932799623, 40.826134745962001 ] } },
{ "type": "Feature", "properties": { "Height": 88.785003662109403, "Radius": 16.096715421277896, "height_m": 27.06, "crown_diameter_m": 9.81, "site_id": 30, "s2_ndvi_july_max": 0.92353755235671997, "health_class": "healthy", "crown_diameter": 9.81, "health_method": "Sentinel-2 SR Harmonized · July 2019–2024 max NDVI · reduceRegions" }, "geometry": { "type": "Point", "coordinates": [ -73.953248561187237, 40.826177232455166 ] } },
{ "type": "Feature", "properties": { "Height": 87.542503356933594, "Radius": 29.811427376513588, "height_m": 26.68, "crown_diameter_m": 18.17, "site_id": 31, "s2_ndvi_july_max": 0.93207943439483643, "health_class": "healthy", "crown_diameter": 18.17, "health_method": "Sentinel-2 SR Harmonized · July 2019–2024 max NDVI · reduceRegions" }, "geometry": { "type": "Point", "coordinates": [ -73.953349008075833, 40.826237477558585 ] } },
{ "type": "Feature", "properties": { "Height": 81.193000793457003, "Radius": 24.6570858499345, "height_m": 24.75, "crown_diameter_m": 15.03, "site_id": 32, "s2_ndvi_july_max": 0.91622591018676758, "health_class": "healthy", "crown_diameter": 15.03, "health_method": "Sentinel-2 SR Harmonized · July 2019–2024 max NDVI · reduceRegions" }, "geometry": { "type": "Point", "coordinates": [ -73.953140074739451, 40.826182572484562 ] } },
{ "type": "Feature", "properties": { "Height": 89.715248107910199, "Radius": 35.136375646384366, "height_m": 27.35, "crown_diameter_m": 21.42, "site_id": 33, "s2_ndvi_july_max": 0.84895622730255127, "health_class": "healthy", "crown_diameter": 21.42, "health_method": "Sentinel-2 SR Harmonized · July 2019–2024 max NDVI · reduceRegions" }, "geometry": { "type": "Point", "coordinates": [ -73.952978774976287, 40.826182643702069 ] } },
{ "type": "Feature", "properties": { "Height": 90.116500854492202, "Radius": 31.542940996980349, "height_m": 27.47, "crown_diameter_m": 19.23, "site_id": 34, "s2_ndvi_july_max": 0.89833557605743408, "health_class": "healthy", "crown_diameter": 19.23, "health_method": "Sentinel-2 SR Harmonized · July 2019–2024 max NDVI · reduceRegions" }, "geometry": { "type": "Point", "coordinates": [ -73.953560942310347, 40.826152886811236 ] } },
{ "type": "Feature", "properties": { "Height": 81.891998291015597, "Radius": 11.479559785988718, "height_m": 24.96, "crown_diameter_m": 7.0, "site_id": 35, "s2_ndvi_july_max": 0.91403770446777344, "health_class": "healthy", "crown_diameter": 7.0, "health_method": "Sentinel-2 SR Harmonized · July 2019–2024 max NDVI · reduceRegions" }, "geometry": { "type": "Point", "coordinates": [ -73.953145307109111, 40.82626205864274 ] } },
{ "type": "Feature", "properties": { "Height": 82.513000488281307, "Radius": 18.305756818006341, "height_m": 25.15, "crown_diameter_m": 11.16, "site_id": 36, "s2_ndvi_july_max": 0.92668622732162476, "health_class": "healthy", "crown_diameter": 11.16, "health_method": "Sentinel-2 SR Harmonized · July 2019–2024 max NDVI · reduceRegions" }, "geometry": { "type": "Point", "coordinates": [ -73.953449547675731, 40.826301021126014 ] } },
{ "type": "Feature", "properties": { "Height": 84.262252807617202, "Radius": 12.488868813069399, "height_m": 25.68, "crown_diameter_m": 7.61, "site_id": 37, "s2_ndvi_july_max": 0.91966068744659424, "health_class": "healthy", "crown_diameter": 7.61, "health_method": "Sentinel-2 SR Harmonized · July 2019–2024 max NDVI · reduceRegions" }, "geometry": { "type": "Point", "coordinates": [ -73.953191572695744, 40.826313509228804 ] } },
{ "type": "Feature", "properties": { "Height": 90.157752990722699, "Radius": 18.906665549070173, "height_m": 27.48, "crown_diameter_m": 11.53, "site_id": 38, "s2_ndvi_july_max": 0.89606368541717529, "health_class": "healthy", "crown_diameter": 11.53, "health_method": "Sentinel-2 SR Harmonized · July 2019–2024 max NDVI · reduceRegions" }, "geometry": { "type": "Point", "coordinates": [ -73.952934432825472, 40.826333471207377 ] } },
{ "type": "Feature", "properties": { "Height": 84.110748291015597, "Radius": 23.630385477979718, "height_m": 25.64, "crown_diameter_m": 14.41, "site_id": 39, "s2_ndvi_july_max": 0.88287097215652466, "health_class": "healthy", "crown_diameter": 14.41, "health_method": "Sentinel-2 SR Harmonized · July 2019–2024 max NDVI · reduceRegions" }, "geometry": { "type": "Point", "coordinates": [ -73.953308387161826, 40.82636401674764 ] } },
{ "type": "Feature", "properties": { "Height": 88.241752624511705, "Radius": 26.178639860651689, "height_m": 26.9, "crown_diameter_m": 15.96, "site_id": 40, "s2_ndvi_july_max": 0.89606368541717529, "health_class": "healthy", "crown_diameter": 15.96, "health_method": "Sentinel-2 SR Harmonized · July 2019–2024 max NDVI · reduceRegions" }, "geometry": { "type": "Point", "coordinates": [ -73.953075417506682, 40.82635548184053 ] } },
{ "type": "Feature", "properties": { "Height": 81.722747802734403, "Radius": 12.192240025845548, "height_m": 24.91, "crown_diameter_m": 7.43, "site_id": 41, "s2_ndvi_july_max": 0.8962441086769104, "health_class": "healthy", "crown_diameter": 7.43, "health_method": "Sentinel-2 SR Harmonized · July 2019–2024 max NDVI · reduceRegions" }, "geometry": { "type": "Point", "coordinates": [ -73.952949828985965, 40.826414847157743 ] } },
{ "type": "Feature", "properties": { "Height": 85.393753051757798, "Radius": 14.306406146065383, "height_m": 26.03, "crown_diameter_m": 8.72, "site_id": 42, "s2_ndvi_july_max": 0.92017847299575806, "health_class": "healthy", "crown_diameter": 8.72, "health_method": "Sentinel-2 SR Harmonized · July 2019–2024 max NDVI · reduceRegions" }, "geometry": { "type": "Point", "coordinates": [ -73.953110845260682, 40.826424216659241 ] } },
{ "type": "Feature", "properties": { "Height": 87.1407470703125, "Radius": 21.923684182580352, "height_m": 26.56, "crown_diameter_m": 13.36, "site_id": 43, "s2_ndvi_july_max": 0.92293184995651245, "health_class": "healthy", "crown_diameter": 13.36, "health_method": "Sentinel-2 SR Harmonized · July 2019–2024 max NDVI · reduceRegions" }, "geometry": { "type": "Point", "coordinates": [ -73.95321157561942, 40.826435719078624 ] } },
{ "type": "Feature", "properties": { "Height": 31.002750396728501, "Radius": 10.337917792583172, "height_m": 9.45, "crown_diameter_m": 6.3, "site_id": 44, "s2_ndvi_july_max": 0.56661045551300049, "health_class": "stressed", "crown_diameter": 6.3, "health_method": "Sentinel-2 SR Harmonized · July 2019–2024 max NDVI · reduceRegions" }, "geometry": { "type": "Point", "coordinates": [ -73.953307234132907, 40.826466458441075 ] } },
{ "type": "Feature", "properties": { "Height": 88.488502502441406, "Radius": 24.801892166731463, "height_m": 26.97, "crown_diameter_m": 15.12, "site_id": 45, "s2_ndvi_july_max": 0.91140872240066528, "health_class": "healthy", "crown_diameter": 15.12, "health_method": "Sentinel-2 SR Harmonized · July 2019–2024 max NDVI · reduceRegions" }, "geometry": { "type": "Point", "coordinates": [ -73.953014437108067, 40.826488308901396 ] } },
{ "type": "Feature", "properties": { "Height": 89.396247863769503, "Radius": 9.4406974388262963, "height_m": 27.25, "crown_diameter_m": 5.76, "site_id": 46, "s2_ndvi_july_max": 0.91140872240066528, "health_class": "healthy", "crown_diameter": 5.76, "health_method": "Sentinel-2 SR Harmonized · July 2019–2024 max NDVI · reduceRegions" }, "geometry": { "type": "Point", "coordinates": [ -73.952911531940345, 40.826532961216266 ] } },
{ "type": "Feature", "properties": { "Height": 94.4114990234375, "Radius": 31.459577454520126, "height_m": 28.78, "crown_diameter_m": 19.18, "site_id": 47, "s2_ndvi_july_max": 0.92147088050842285, "health_class": "healthy", "crown_diameter": 19.18, "health_method": "Sentinel-2 SR Harmonized · July 2019–2024 max NDVI · reduceRegions" }, "geometry": { "type": "Point", "coordinates": [ -73.952995191764828, 40.826616535205901 ] } },
{ "type": "Feature", "properties": { "Height": 88.790748596191406, "Radius": 24.274908378771332, "height_m": 27.06, "crown_diameter_m": 14.8, "site_id": 48, "s2_ndvi_july_max": 0.91569650173187256, "health_class": "healthy", "crown_diameter": 14.8, "health_method": "Sentinel-2 SR Harmonized · July 2019–2024 max NDVI · reduceRegions" }, "geometry": { "type": "Point", "coordinates": [ -73.953003948771226, 40.826735775169965 ] } },
{ "type": "Feature", "properties": { "Height": 78.060997009277301, "Radius": 16.205112036071434, "height_m": 23.79, "crown_diameter_m": 9.88, "site_id": 49, "s2_ndvi_july_max": 0.91569650173187256, "health_class": "healthy", "crown_diameter": 9.88, "health_method": "Sentinel-2 SR Harmonized · July 2019–2024 max NDVI · reduceRegions" }, "geometry": { "type": "Point", "coordinates": [ -73.952951420602474, 40.826809498919012 ] } },
{ "type": "Feature", "properties": { "Height": 53.288249969482401, "Radius": 11.654987942032916, "height_m": 16.24, "crown_diameter_m": 7.1, "site_id": 50, "s2_ndvi_july_max": 0.77391302585601807, "health_class": "healthy", "crown_diameter": 7.1, "health_method": "Sentinel-2 SR Harmonized · July 2019–2024 max NDVI · reduceRegions" }, "geometry": { "type": "Point", "coordinates": [ -73.952920545552743, 40.826885771782642 ] } },
{ "type": "Feature", "properties": { "Height": 16.942750930786101, "Radius": 3.3615474055149912, "height_m": 5.16, "crown_diameter_m": 2.05, "site_id": 51, "s2_ndvi_july_max": 0.89092713594436646, "health_class": "healthy", "crown_diameter": 2.05, "health_method": "Sentinel-2 SR Harmonized · July 2019–2024 max NDVI · reduceRegions" }, "geometry": { "type": "Point", "coordinates": [ -73.953176826278266, 40.826597160199128 ] } },
{ "type": "Feature", "properties": { "Height": 9.1527500152587908, "Radius": 4.9907663333281418, "height_m": 2.79, "crown_diameter_m": 3.04, "site_id": 52, "s2_ndvi_july_max": 0.86807554960250854, "health_class": "healthy", "crown_diameter": 3.04, "health_method": "Sentinel-2 SR Harmonized · July 2019–2024 max NDVI · reduceRegions" }, "geometry": { "type": "Point", "coordinates": [ -73.953361221695502, 40.825875810197275 ] } },
{ "type": "Feature", "properties": { "Height": 15.604249954223601, "Radius": 4.6438663620900869, "height_m": 4.76, "crown_diameter_m": 2.83, "site_id": 53, "s2_ndvi_july_max": 0.66699314117431641, "health_class": "stressed", "crown_diameter": 2.83, "health_method": "Sentinel-2 SR Harmonized · July 2019–2024 max NDVI · reduceRegions" }, "geometry": { "type": "Point", "coordinates": [ -73.953820810700918, 40.825554881154531 ] } },
{ "type": "Feature", "properties": { "Height": 35.149250030517599, "Radius": 3.2410224072142872, "height_m": 10.71, "crown_diameter_m": 1.98, "site_id": 54, "s2_ndvi_july_max": 0.42608696222305298, "health_class": "critical", "crown_diameter": 1.98, "health_method": "Sentinel-2 SR Harmonized · July 2019–2024 max NDVI · reduceRegions" }, "geometry": { "type": "Point", "coordinates": [ -73.954199514589362, 40.825523616598609 ] } },
{ "type": "Feature", "properties": { "Height": 52.604499816894503, "Radius": 12.877866698399815, "height_m": 16.03, "crown_diameter_m": 7.85, "site_id": 55, "s2_ndvi_july_max": 0.87385845184326172, "health_class": "healthy", "crown_diameter": 7.85, "health_method": "Sentinel-2 SR Harmonized · July 2019–2024 max NDVI · reduceRegions" }, "geometry": { "type": "Point", "coordinates": [ -73.954429602181847, 40.825227262809868 ] } },
{ "type": "Feature", "properties": { "Height": 55.709877014160199, "Radius": 12.224830942114894, "height_m": 16.98, "crown_diameter_m": 7.45, "site_id": 56, "s2_ndvi_july_max": 0.47742325067520142, "health_class": "critical", "crown_diameter": 7.45, "health_method": "Sentinel-2 SR Harmonized · July 2019–2024 max NDVI · reduceRegions" }, "geometry": { "type": "Point", "coordinates": [ -73.954384784222739, 40.825292813776002 ] } },
{ "type": "Feature", "properties": { "Height": 60.846626281738303, "Radius": 19.570548550069979, "height_m": 18.55, "crown_diameter_m": 11.93, "site_id": 57, "s2_ndvi_july_max": 0.84904152154922485, "health_class": "healthy", "crown_diameter": 11.93, "health_method": "Sentinel-2 SR Harmonized · July 2019–2024 max NDVI · reduceRegions" }, "geometry": { "type": "Point", "coordinates": [ -73.95429572349606, 40.825355856426611 ] } },
{ "type": "Feature", "properties": { "Height": 66.2969970703125, "Radius": 23.983034927508857, "height_m": 20.21, "crown_diameter_m": 14.62, "site_id": 58, "s2_ndvi_july_max": 0.77825820446014404, "health_class": "healthy", "crown_diameter": 14.62, "health_method": "Sentinel-2 SR Harmonized · July 2019–2024 max NDVI · reduceRegions" }, "geometry": { "type": "Point", "coordinates": [ -73.954150491241634, 40.825410490372619 ] } },
{ "type": "Feature", "properties": { "Height": 59.1537475585938, "Radius": 10.771441570838682, "height_m": 18.03, "crown_diameter_m": 6.57, "site_id": 59, "s2_ndvi_july_max": 0.83410137891769409, "health_class": "healthy", "crown_diameter": 6.57, "health_method": "Sentinel-2 SR Harmonized · July 2019–2024 max NDVI · reduceRegions" }, "geometry": { "type": "Point", "coordinates": [ -73.954238434932947, 40.825460299297141 ] } },
{ "type": "Feature", "properties": { "Height": 95.681503295898395, "Radius": 22.05577211435542, "height_m": 29.16, "crown_diameter_m": 13.45, "site_id": 60, "s2_ndvi_july_max": 0.83819377422332764, "health_class": "healthy", "crown_diameter": 13.45, "health_method": "Sentinel-2 SR Harmonized · July 2019–2024 max NDVI · reduceRegions" }, "geometry": { "type": "Point", "coordinates": [ -73.952399191897882, 40.827401561387518 ] } },
{ "type": "Feature", "properties": { "Height": 80.253501892089801, "Radius": 18.429233531487537, "height_m": 24.46, "crown_diameter_m": 11.23, "site_id": 61, "s2_ndvi_july_max": 0.88788926601409912, "health_class": "healthy", "crown_diameter": 11.23, "health_method": "Sentinel-2 SR Harmonized · July 2019–2024 max NDVI · reduceRegions" }, "geometry": { "type": "Point", "coordinates": [ -73.952070595856014, 40.827509177648039 ] } },
{ "type": "Feature", "properties": { "Height": 88.711746215820298, "Radius": 22.255115881567058, "height_m": 27.04, "crown_diameter_m": 13.57, "site_id": 62, "s2_ndvi_july_max": 0.91850763559341431, "health_class": "healthy", "crown_diameter": 13.57, "health_method": "Sentinel-2 SR Harmonized · July 2019–2024 max NDVI · reduceRegions" }, "geometry": { "type": "Point", "coordinates": [ -73.952217573893265, 40.827482067097321 ] } },
{ "type": "Feature", "properties": { "Height": 94.629501342773395, "Radius": 28.097830791848445, "height_m": 28.84, "crown_diameter_m": 17.13, "site_id": 63, "s2_ndvi_july_max": 0.90266460180282593, "health_class": "healthy", "crown_diameter": 17.13, "health_method": "Sentinel-2 SR Harmonized · July 2019–2024 max NDVI · reduceRegions" }, "geometry": { "type": "Point", "coordinates": [ -73.952317656318527, 40.827427028828865 ] } },
{ "type": "Feature", "properties": { "Height": 80.376747131347699, "Radius": 15.907745268142609, "height_m": 24.5, "crown_diameter_m": 9.7, "site_id": 64, "s2_ndvi_july_max": 0.90696597099304199, "health_class": "healthy", "crown_diameter": 9.7, "health_method": "Sentinel-2 SR Harmonized · July 2019–2024 max NDVI · reduceRegions" }, "geometry": { "type": "Point", "coordinates": [ -73.952005906897639, 40.82761195578491 ] } },
{ "type": "Feature", "properties": { "Height": 89.4947509765625, "Radius": 31.422878081775362, "height_m": 27.28, "crown_diameter_m": 19.16, "site_id": 65, "s2_ndvi_july_max": 0.9201539158821106, "health_class": "healthy", "crown_diameter": 19.16, "health_method": "Sentinel-2 SR Harmonized · July 2019–2024 max NDVI · reduceRegions" }, "geometry": { "type": "Point", "coordinates": [ -73.952139334178781, 40.827612477694217 ] } },
{ "type": "Feature", "properties": { "Height": 89.816749572753906, "Radius": 29.795406903860066, "height_m": 27.38, "crown_diameter_m": 18.16, "site_id": 66, "s2_ndvi_july_max": 0.94085115194320679, "health_class": "healthy", "crown_diameter": 18.16, "health_method": "Sentinel-2 SR Harmonized · July 2019–2024 max NDVI · reduceRegions" }, "geometry": { "type": "Point", "coordinates": [ -73.951890953375994, 40.827683126254122 ] } },
{ "type": "Feature", "properties": { "Height": 76.874000549316406, "Radius": 13.505242122350568, "height_m": 23.43, "crown_diameter_m": 8.23, "site_id": 67, "s2_ndvi_july_max": 0.82772189378738403, "health_class": "healthy", "crown_diameter": 8.23, "health_method": "Sentinel-2 SR Harmonized · July 2019–2024 max NDVI · reduceRegions" }, "geometry": { "type": "Point", "coordinates": [ -73.952145330727902, 40.827712526104577 ] } },
{ "type": "Feature", "properties": { "Height": 91.159500122070298, "Radius": 20.798633015748212, "height_m": 27.79, "crown_diameter_m": 12.68, "site_id": 68, "s2_ndvi_july_max": 0.92139738798141479, "health_class": "healthy", "crown_diameter": 12.68, "health_method": "Sentinel-2 SR Harmonized · July 2019–2024 max NDVI · reduceRegions" }, "geometry": { "type": "Point", "coordinates": [ -73.951777648430792, 40.827810178429061 ] } },
{ "type": "Feature", "properties": { "Height": 94.842002868652301, "Radius": 31.920368821088424, "height_m": 28.91, "crown_diameter_m": 19.46, "site_id": 69, "s2_ndvi_july_max": 0.89787900447845459, "health_class": "healthy", "crown_diameter": 19.46, "health_method": "Sentinel-2 SR Harmonized · July 2019–2024 max NDVI · reduceRegions" }, "geometry": { "type": "Point", "coordinates": [ -73.952023702974685, 40.827803291412636 ] } },
{ "type": "Feature", "properties": { "Height": 77.825752258300795, "Radius": 22.68715685050001, "height_m": 23.72, "crown_diameter_m": 13.83, "site_id": 70, "s2_ndvi_july_max": 0.91098237037658691, "health_class": "healthy", "crown_diameter": 13.83, "health_method": "Sentinel-2 SR Harmonized · July 2019–2024 max NDVI · reduceRegions" }, "geometry": { "type": "Point", "coordinates": [ -73.951874735926552, 40.827809308585564 ] } },
{ "type": "Feature", "properties": { "Height": 74.919746398925795, "Radius": 18.53686926466824, "height_m": 22.84, "crown_diameter_m": 11.3, "site_id": 71, "s2_ndvi_july_max": 0.92070704698562622, "health_class": "healthy", "crown_diameter": 11.3, "health_method": "Sentinel-2 SR Harmonized · July 2019–2024 max NDVI · reduceRegions" }, "geometry": { "type": "Point", "coordinates": [ -73.951723956712385, 40.827891467080889 ] } },
{ "type": "Feature", "properties": { "Height": 63.068248748779297, "Radius": 10.55502061411188, "height_m": 19.22, "crown_diameter_m": 6.43, "site_id": 72, "s2_ndvi_july_max": 0.88083058595657349, "health_class": "healthy", "crown_diameter": 6.43, "health_method": "Sentinel-2 SR Harmonized · July 2019–2024 max NDVI · reduceRegions" }, "geometry": { "type": "Point", "coordinates": [ -73.951933618225951, 40.827955072889885 ] } },
{ "type": "Feature", "properties": { "Height": 62.696250915527301, "Radius": 22.669612066458704, "height_m": 19.11, "crown_diameter_m": 13.82, "site_id": 73, "s2_ndvi_july_max": 0.88083058595657349, "health_class": "healthy", "crown_diameter": 13.82, "health_method": "Sentinel-2 SR Harmonized · July 2019–2024 max NDVI · reduceRegions" }, "geometry": { "type": "Point", "coordinates": [ -73.951861291246956, 40.827948647403971 ] } },
{ "type": "Feature", "properties": { "Height": 80.836250305175795, "Radius": 37.595944589797483, "height_m": 24.64, "crown_diameter_m": 22.92, "site_id": 74, "s2_ndvi_july_max": 0.93948310613632202, "health_class": "healthy", "crown_diameter": 22.92, "health_method": "Sentinel-2 SR Harmonized · July 2019–2024 max NDVI · reduceRegions" }, "geometry": { "type": "Point", "coordinates": [ -73.951611529652823, 40.828019999870065 ] } },
{ "type": "Feature", "properties": { "Height": 21.131999969482401, "Radius": 15.612360338694392, "height_m": 6.44, "crown_diameter_m": 9.52, "site_id": 75, "s2_ndvi_july_max": 0.74656909704208374, "health_class": "healthy", "crown_diameter": 9.52, "health_method": "Sentinel-2 SR Harmonized · July 2019–2024 max NDVI · reduceRegions" }, "geometry": { "type": "Point", "coordinates": [ -73.951763831525057, 40.828138906526668 ] } },
{ "type": "Feature", "properties": { "Height": 89.760246276855497, "Radius": 20.852129496218321, "height_m": 27.36, "crown_diameter_m": 12.71, "site_id": 76, "s2_ndvi_july_max": 0.91887485980987549, "health_class": "healthy", "crown_diameter": 12.71, "health_method": "Sentinel-2 SR Harmonized · July 2019–2024 max NDVI · reduceRegions" }, "geometry": { "type": "Point", "coordinates": [ -73.951529451867643, 40.828125979798621 ] } },
{ "type": "Feature", "properties": { "Height": 96.410247802734403, "Radius": 18.609705966725112, "height_m": 29.39, "crown_diameter_m": 11.34, "site_id": 77, "s2_ndvi_july_max": 0.92733478546142578, "health_class": "healthy", "crown_diameter": 11.34, "health_method": "Sentinel-2 SR Harmonized · July 2019–2024 max NDVI · reduceRegions" }, "geometry": { "type": "Point", "coordinates": [ -73.951578290432636, 40.828211084502115 ] } },
{ "type": "Feature", "properties": { "Height": 90.794746398925795, "Radius": 22.197831060995757, "height_m": 27.67, "crown_diameter_m": 13.53, "site_id": 78, "s2_ndvi_july_max": 0.93693900108337402, "health_class": "healthy", "crown_diameter": 13.53, "health_method": "Sentinel-2 SR Harmonized · July 2019–2024 max NDVI · reduceRegions" }, "geometry": { "type": "Point", "coordinates": [ -73.951435534110544, 40.828232164496868 ] } },
{ "type": "Feature", "properties": { "Height": 93.190246582031307, "Radius": 23.287775088780666, "height_m": 28.4, "crown_diameter_m": 14.2, "site_id": 79, "s2_ndvi_july_max": 0.93123626708984375, "health_class": "healthy", "crown_diameter": 14.2, "health_method": "Sentinel-2 SR Harmonized · July 2019–2024 max NDVI · reduceRegions" }, "geometry": { "type": "Point", "coordinates": [ -73.951675995146388, 40.828213242549594 ] } },
{ "type": "Feature", "properties": { "Height": 81.407249450683594, "Radius": 22.340767702480228, "height_m": 24.81, "crown_diameter_m": 13.62, "site_id": 80, "s2_ndvi_july_max": 0.93715935945510864, "health_class": "healthy", "crown_diameter": 13.62, "health_method": "Sentinel-2 SR Harmonized · July 2019–2024 max NDVI · reduceRegions" }, "geometry": { "type": "Point", "coordinates": [ -73.951485387206546, 40.828317562326355 ] } },
{ "type": "Feature", "properties": { "Height": 66.164001464843807, "Radius": 16.944483389521771, "height_m": 20.17, "crown_diameter_m": 10.33, "site_id": 81, "s2_ndvi_july_max": 0.92553985118865967, "health_class": "healthy", "crown_diameter": 10.33, "health_method": "Sentinel-2 SR Harmonized · July 2019–2024 max NDVI · reduceRegions" }, "geometry": { "type": "Point", "coordinates": [ -73.951603142348446, 40.828342630261261 ] } },
{ "type": "Feature", "properties": { "Height": 89.772499084472699, "Radius": 21.087411197175332, "height_m": 27.36, "crown_diameter_m": 12.85, "site_id": 82, "s2_ndvi_july_max": 0.94205480813980103, "health_class": "healthy", "crown_diameter": 12.85, "health_method": "Sentinel-2 SR Harmonized · July 2019–2024 max NDVI · reduceRegions" }, "geometry": { "type": "Point", "coordinates": [ -73.951352967581997, 40.8283799964031 ] } },
{ "type": "Feature", "properties": { "Height": 76.724250793457003, "Radius": 22.129612737094202, "height_m": 23.39, "crown_diameter_m": 13.49, "site_id": 83, "s2_ndvi_july_max": 0.92553985118865967, "health_class": "healthy", "crown_diameter": 13.49, "health_method": "Sentinel-2 SR Harmonized · July 2019–2024 max NDVI · reduceRegions" }, "geometry": { "type": "Point", "coordinates": [ -73.95151416339381, 40.828417639249459 ] } },
{ "type": "Feature", "properties": { "Height": 88.28125, "Radius": 15.138795132120961, "height_m": 26.91, "crown_diameter_m": 9.23, "site_id": 84, "s2_ndvi_july_max": 0.94471359252929688, "health_class": "healthy", "crown_diameter": 9.23, "health_method": "Sentinel-2 SR Harmonized · July 2019–2024 max NDVI · reduceRegions" }, "geometry": { "type": "Point", "coordinates": [ -73.95139508369482, 40.828448097897116 ] } },
{ "type": "Feature", "properties": { "Height": 88.398246765136705, "Radius": 24.748894894301021, "height_m": 26.94, "crown_diameter_m": 15.09, "site_id": 85, "s2_ndvi_july_max": 0.93453091382980347, "health_class": "healthy", "crown_diameter": 15.09, "health_method": "Sentinel-2 SR Harmonized · July 2019–2024 max NDVI · reduceRegions" }, "geometry": { "type": "Point", "coordinates": [ -73.95125678600327, 40.828350324096824 ] } },
{ "type": "Feature", "properties": { "Height": 89.649749755859403, "Radius": 36.032019763984039, "height_m": 27.33, "crown_diameter_m": 21.97, "site_id": 86, "s2_ndvi_july_max": 0.81559222936630249, "health_class": "healthy", "crown_diameter": 21.97, "health_method": "Sentinel-2 SR Harmonized · July 2019–2024 max NDVI · reduceRegions" }, "geometry": { "type": "Point", "coordinates": [ -73.952790585704605, 40.826342699217754 ] } },
{ "type": "Feature", "properties": { "Height": 89.531501770019503, "Radius": 40.608914573608999, "height_m": 27.29, "crown_diameter_m": 24.76, "site_id": 87, "s2_ndvi_july_max": 0.87844842672348022, "health_class": "healthy", "crown_diameter": 24.76, "health_method": "Sentinel-2 SR Harmonized · July 2019–2024 max NDVI · reduceRegions" }, "geometry": { "type": "Point", "coordinates": [ -73.952776280733232, 40.826539777589645 ] } },
{ "type": "Feature", "properties": { "Height": 83.818000793457003, "Radius": 20.459166657801209, "height_m": 25.55, "crown_diameter_m": 12.47, "site_id": 88, "s2_ndvi_july_max": 0.90155059099197388, "health_class": "healthy", "crown_diameter": 12.47, "health_method": "Sentinel-2 SR Harmonized · July 2019–2024 max NDVI · reduceRegions" }, "geometry": { "type": "Point", "coordinates": [ -73.952705029479091, 40.826819892504354 ] } },
{ "type": "Feature", "properties": { "Height": 81.310997009277301, "Radius": 22.319385562278196, "height_m": 24.78, "crown_diameter_m": 13.61, "site_id": 89, "s2_ndvi_july_max": 0.92764860391616821, "health_class": "healthy", "crown_diameter": 13.61, "health_method": "Sentinel-2 SR Harmonized · July 2019–2024 max NDVI · reduceRegions" }, "geometry": { "type": "Point", "coordinates": [ -73.952852524670718, 40.826870167224108 ] } },
{ "type": "Feature", "properties": { "Height": 84.076751708984403, "Radius": 14.841510746523857, "height_m": 25.63, "crown_diameter_m": 9.05, "site_id": 90, "s2_ndvi_july_max": 0.93373095989227295, "health_class": "healthy", "crown_diameter": 9.05, "health_method": "Sentinel-2 SR Harmonized · July 2019–2024 max NDVI · reduceRegions" }, "geometry": { "type": "Point", "coordinates": [ -73.95277474791331, 40.826888888215073 ] } },
{ "type": "Feature", "properties": { "Height": 87.919502258300795, "Radius": 55.361776674815772, "height_m": 26.8, "crown_diameter_m": 33.75, "site_id": 91, "s2_ndvi_july_max": 0.90975022315979004, "health_class": "healthy", "crown_diameter": 33.75, "health_method": "Sentinel-2 SR Harmonized · July 2019–2024 max NDVI · reduceRegions" }, "geometry": { "type": "Point", "coordinates": [ -73.952550154157478, 40.826918686163346 ] } },
{ "type": "Feature", "properties": { "Height": 85.160751342773395, "Radius": 33.391016064658359, "height_m": 25.96, "crown_diameter_m": 20.36, "site_id": 92, "s2_ndvi_july_max": 0.77653628587722778, "health_class": "healthy", "crown_diameter": 20.36, "health_method": "Sentinel-2 SR Harmonized · July 2019–2024 max NDVI · reduceRegions" }, "geometry": { "type": "Point", "coordinates": [ -73.95242641064543, 40.827093059326849 ] } },
{ "type": "Feature", "properties": { "Height": 83.864753723144503, "Radius": 31.146893193650115, "height_m": 25.56, "crown_diameter_m": 18.99, "site_id": 93, "s2_ndvi_july_max": 0.92315679788589478, "health_class": "healthy", "crown_diameter": 18.99, "health_method": "Sentinel-2 SR Harmonized · July 2019–2024 max NDVI · reduceRegions" }, "geometry": { "type": "Point", "coordinates": [ -73.952676326878603, 40.827111519653613 ] } },
{ "type": "Feature", "properties": { "Height": 84.693000793457003, "Radius": 17.000746355818674, "height_m": 25.81, "crown_diameter_m": 10.36, "site_id": 94, "s2_ndvi_july_max": 0.86348330974578857, "health_class": "healthy", "crown_diameter": 10.36, "health_method": "Sentinel-2 SR Harmonized · July 2019–2024 max NDVI · reduceRegions" }, "geometry": { "type": "Point", "coordinates": [ -73.952512966247681, 40.827104162989833 ] } }
]
}
